{
  "version": 0.6,
  "generator": "Overpass API 0.7.62.7 375dc00a",
  "osm3s": {
    "timestamp_osm_base": "2025-07-21T07:42:45Z",
    "copyright": "The data included in this document is from www.openstreetmap.org. The data is made available under ODbL."
  },
  "elements": [
    {
      "type": "node",
      "id": 833049155,
      "lat": 52.5938028,
      "lon": 13.4026424,
      "tags": {
        "addr:city": "Berlin",
        "addr:country": "DE",
        "addr:housenumber": "123",
        "addr:postcode": "13158",
        "addr:street": "Dietzgenstra\u00dfe",
        "addr:suburb": "Rosenthal",
        "contact:website": "https://www.asd-nord-ost.de/",
        "name": "Abschleppdienst Nord-Ost",
        "shop": "towing",
        "wheelchair": "limited"
      }
    },
    {
      "type": "node",
      "id": 1409588032,
      "lat": 52.5117748,
      "lon": 13.11852,
      "tags": {
        "amenity": "car_wash",
        "automated": "yes",
        "name": "Auto Service Seelke GmbH",
        "self_service": "no"
      }
    },
    {
      "type": "node",
      "id": 2395299455,
      "lat": 52.5199984,
      "lon": 13.3573621,
      "tags": {
        "addr:city": "Berlin",
        "addr:country": "DE",
        "addr:housenumber": "379",
        "addr:place": "Stadtbahnbogen",
        "addr:postcode": "10557",
        "addr:suburb": "Moabit",
        "entrance": "yes",
        "name": "Auto Service Moabit"
      }
    },
    {
      "type": "node",
      "id": 2621084946,
      "lat": 52.3561087,
      "lon": 13.129536,
      "tags": {
        "addr:city": "Potsdam",
        "addr:country": "DE",
        "addr:housenumber": "20",
        "addr:postcode": "14480",
        "addr:street": "Am Silbergraben",
        "addr:suburb": "Drewitz",
        "contact:email": "abschleppdienst-potsdam-nord@web.de",
        "contact:fax": "+49 331 887 34253",
        "contact:mobile": "+49 163 288 0311",
        "contact:phone": "+49 331 601 5513",
        "contact:website": "https://www.abschleppdienst-potsdam.com/",
        "hgv": "designated",
        "name": "Abschleppdienst Potsdam-Nord",
        "office": "company",
        "operator": "Abschleppdienst Potsdam-Nord A.P.N. GmbH",
        "operator:type": "business"
      }
    },
    {
      "type": "node",
      "id": 3081222953,
      "lat": 52.5437015,
      "lon": 13.3682695,
      "tags": {
        "addr:housenumber": "8-9",
        "addr:postcode": "13347",
        "addr:street": "Lindower Stra\u00dfe",
        "check_date": "2023-10-02",
        "name": "Schramm Abschleppdienst",
        "office": "company",
        "phone": "+49 30 495209 8",
        "website": "https://www.schrammberlin.de"
      }
    },
    {
      "type": "node",
      "id": 5152409123,
      "lat": 52.5430713,
      "lon": 13.501381,
      "tags": {
        "addr:city": "Berlin",
        "addr:country": "DE",
        "addr:housenumber": "72",
        "addr:postcode": "13055",
        "addr:street": "Genslerstra\u00dfe",
        "name": "Car Service Abschlepp- & Bergungsdienst",
        "office": "company",
        "opening_hours": "24/7",
        "operator": "CSA Car Service Abschlepp- & Bergungsdienst GmbH",
        "phone": "+49 30 5588888",
        "short_name": "CSA",
        "toilets:wheelchair": "no",
        "website": "https://www.csa-abschleppdienst-berlin.de/",
        "wheelchair": "yes"
      }
    },
    {
      "type": "node",
      "id": 6105364943,
      "lat": 52.3559873,
      "lon": 13.1305611,
      "tags": {
        "addr:city": "Potsdam",
        "addr:country": "DE",
        "addr:housenumber": "20a",
        "addr:postcode": "14480",
        "addr:street": "Am Silbergraben",
        "addr:suburb": "Drewitz",
        "contact:mobile": "+49 172 302 1035",
        "contact:website": "https://home.mobile.de/home/index.html?customerId=457257",
        "name": "Abschleppdienst Lausch",
        "office": "company"
      }
    },
    {
      "type": "node",
      "id": 8156098124,
      "lat": 52.4580117,
      "lon": 13.3386396,
      "tags": {
        "addr:city": "Berlin",
        "addr:country": "DE",
        "addr:housenumber": "16",
        "addr:postcode": "12169",
        "addr:street": "Bismarckstra\u00dfe",
        "addr:suburb": "Steglitz",
        "brand": "ADAC",
        "name": "City-Autodienst",
        "opening_hours": "Mo-Fr 08:00-18:00; Sa 08:00-12:00",
        "operator": "ADAC",
        "service:vehicle:towing": "yes",
        "shop": "car_repair",
        "website": "https://www.city-autodienst.de/"
      }
    },
    {
      "type": "node",
      "id": 9285156994,
      "lat": 52.4145572,
      "lon": 13.5446298,
      "tags": {
        "name": "Ludwig Kindler Abschleppdienst",
        "service:vehicle:towing": "yes",
        "shop": "car_repair"
      }
    },
    {
      "type": "node",
      "id": 9530505240,
      "lat": 52.5682354,
      "lon": 13.3743012,
      "tags": {
        "addr:city": "Berlin",
        "addr:country": "DE",
        "addr:housenumber": "37-38",
        "addr:postcode": "13409",
        "addr:street": "Hausotterstra\u00dfe",
        "addr:suburb": "Reinickendorf",
        "contact:website": "https://www.abschleppdienst-reinhold.de",
        "name": "Abschleppdienst Reinhold",
        "shop": "towing"
      }
    },
    {
      "type": "node",
      "id": 10706664131,
      "lat": 52.4239166,
      "lon": 13.5258302,
      "tags": {
        "contact:phone": "+49 30 679721511",
        "contact:website": "http://www.abschleppdienst-koglin.de",
        "emergency:phone": "0800 8993556",
        "name": "Koglin Abschleppdienst",
        "operator": "Peter Koglin GmbH",
        "service:vehicle:towing": "yes",
        "shop": "car_repair"
      }
    },
    {
      "type": "node",
      "id": 12998806333,
      "lat": 52.4186771,
      "lon": 13.3900746,
      "tags": {
        "addr:city": "Berlin",
        "addr:housenumber": "4",
        "addr:postcode": "12277",
        "addr:street": "Richard-Tauber-Damm",
        "name": "Easy Car Logistics",
        "phone": "+49 30 76808900",
        "service:vehicle:car_repair": "yes",
        "service:vehicle:towing": "yes",
        "shop": "car_repair"
      }
    },
    {
      "type": "way",
      "id": 47393593,
      "nodes": [
        3164465471,
        3164465465,
        3164465464,
        3164465476,
        3164465477,
        3164465488,
        3164465489,
        3164465513,
        3164465512,
        3164465520,
        3164465521,
        3164465515,
        3164465514,
        3164465492,
        3164465493,
        3164465473,
        3164465471
      ],
      "tags": {
        "building": "yes",
        "name": "Autoverwertung Lichtenberg",
        "old_name": "Deutsche Treibstoffwerke; Kombinat Minol"
      }
    },
    {
      "type": "way",
      "id": 95202888,
      "nodes": [
        1104419266,
        2242616315,
        1104419629,
        1104419224,
        2242616349,
        1104419654,
        1104419266
      ],
      "tags": {
        "addr:city": "Berlin",
        "addr:housenumber": "76c",
        "addr:postcode": "12103",
        "addr:street": "Bessemerstra\u00dfe",
        "building": "commercial",
        "name": "Kroll Abschlepp- und Bergungsdienst",
        "website": "https://www.abschlepp-kroll.de/"
      }
    },
    {
      "type": "way",
      "id": 318894442,
      "nodes": [
        3252905709,
        3252905707,
        3252905690,
        3252905682,
        3252905698,
        3252905683,
        3252905758,
        3252905761,
        3252905795,
        3252905709
      ],
      "tags": {
        "addr:city": "Falkensee",
        "addr:country": "DE",
        "addr:housenumber": "35",
        "addr:postcode": "14612",
        "addr:street": "Finkenkruger Stra\u00dfe",
        "building": "commercial",
        "building:levels": "2",
        "car_service": "wrecker",
        "contact:phone": "+49 3322 5000 0",
        "contact:website": "http://www.abschleppdienst-kobra.de/",
        "name": "Abschlepp- und Bergungsdienst Kobra",
        "operator": "Abschlepp- und Bergungsdienst Nord-S\u00fcd Kobra GmbH"
      }
    },
    {
      "type": "way",
      "id": 483233709,
      "nodes": [
        4759907559,
        4759907555,
        4759907558,
        4759907557,
        4759907556,
        4759907554,
        4759907559
      ],
      "tags": {
        "addr:city": "Berlin",
        "addr:housenumber": "58",
        "addr:postcode": "12681",
        "addr:street": "Rhinstra\u00dfe",
        "barrier": "fence",
        "name": "Trost Auto Service Technik",
        "website": "https://de.trost.com/"
      }
    },
    {
      "type": "node",
      "id": 3252905682,
      "lat": 52.561131,
      "lon": 13.0822529
    },
    {
      "type": "node",
      "id": 3252905683,
      "lat": 52.5611339,
      "lon": 13.0823201
    },
    {
      "type": "node",
      "id": 3252905690,
      "lat": 52.5611404,
      "lon": 13.0822214
    },
    {
      "type": "node",
      "id": 3252905698,
      "lat": 52.5611495,
      "lon": 13.0822678
    },
    {
      "type": "node",
      "id": 3252905707,
      "lat": 52.561159,
      "lon": 13.0822364
    },
    {
      "type": "node",
      "id": 3252905709,
      "lat": 52.5611615,
      "lon": 13.0822281
    },
    {
      "type": "node",
      "id": 3252905758,
      "lat": 52.5612886,
      "lon": 13.0824432
    },
    {
      "type": "node",
      "id": 3252905761,
      "lat": 52.5612899,
      "lon": 13.0824398
    },
    {
      "type": "node",
      "id": 3252905795,
      "lat": 52.5613158,
      "lon": 13.0823543
    },
    {
      "type": "node",
      "id": 1104419224,
      "lat": 52.4621077,
      "lon": 13.3624088
    },
    {
      "type": "node",
      "id": 1104419654,
      "lat": 52.4623001,
      "lon": 13.3626935
    },
    {
      "type": "node",
      "id": 2242616349,
      "lat": 52.4622126,
      "lon": 13.3625426
    },
    {
      "type": "node",
      "id": 1104419266,
      "lat": 52.4617073,
      "lon": 13.3632121
    },
    {
      "type": "node",
      "id": 1104419629,
      "lat": 52.4615932,
      "lon": 13.3628552
    },
    {
      "type": "node",
      "id": 2242616315,
      "lat": 52.4616178,
      "lon": 13.3629343
    },
    {
      "type": "node",
      "id": 4759907554,
      "lat": 52.5194833,
      "lon": 13.5196235
    },
    {
      "type": "node",
      "id": 4759907556,
      "lat": 52.5195466,
      "lon": 13.5196267
    },
    {
      "type": "node",
      "id": 4759907559,
      "lat": 52.5191269,
      "lon": 13.5196016
    },
    {
      "type": "node",
      "id": 4759907555,
      "lat": 52.5190837,
      "lon": 13.5211808
    },
    {
      "type": "node",
      "id": 4759907557,
      "lat": 52.5194152,
      "lon": 13.5212887
    },
    {
      "type": "node",
      "id": 4759907558,
      "lat": 52.5190818,
      "lon": 13.5212532
    },
    {
      "type": "node",
      "id": 3164465464,
      "lat": 52.5252784,
      "lon": 13.5028039
    },
    {
      "type": "node",
      "id": 3164465465,
      "lat": 52.5252834,
      "lon": 13.5030504
    },
    {
      "type": "node",
      "id": 3164465471,
      "lat": 52.5253348,
      "lon": 13.5030495
    },
    {
      "type": "node",
      "id": 3164465473,
      "lat": 52.5253386,
      "lon": 13.5032299
    },
    {
      "type": "node",
      "id": 3164465476,
      "lat": 52.5253459,
      "lon": 13.5028
    },
    {
      "type": "node",
      "id": 3164465477,
      "lat": 52.5253469,
      "lon": 13.5028657
    },
    {
      "type": "node",
      "id": 3164465488,
      "lat": 52.5254452,
      "lon": 13.5028617
    },
    {
      "type": "node",
      "id": 3164465489,
      "lat": 52.5254455,
      "lon": 13.5028853
    },
    {
      "type": "node",
      "id": 3164465492,
      "lat": 52.5254498,
      "lon": 13.5032031
    },
    {
      "type": "node",
      "id": 3164465493,
      "lat": 52.5254501,
      "lon": 13.5032253
    },
    {
      "type": "node",
      "id": 3164465512,
      "lat": 52.525769,
      "lon": 13.5028486
    },
    {
      "type": "node",
      "id": 3164465513,
      "lat": 52.5257693,
      "lon": 13.5028721
    },
    {
      "type": "node",
      "id": 3164465514,
      "lat": 52.5257736,
      "lon": 13.5031898
    },
    {
      "type": "node",
      "id": 3164465515,
      "lat": 52.525774,
      "lon": 13.503212
    },
    {
      "type": "node",
      "id": 3164465520,
      "lat": 52.5258515,
      "lon": 13.5028452
    },
    {
      "type": "node",
      "id": 3164465521,
      "lat": 52.5258573,
      "lon": 13.5032085
    }
  ]
}