{
  "version": 0.6,
  "generator": "Overpass API 0.7.62.7 375dc00a",
  "osm3s": {
    "timestamp_osm_base": "2025-07-16T08:07:12Z",
    "copyright": "The data included in this document is from www.openstreetmap.org. The data is made available under ODbL."
  },
  "elements": [
    {
      "type": "node",
      "id": 732715804,
      "lat": 52.5945098,
      "lon": 13.4348908,
      "tags": {
        "addr:city": "Berlin",
        "addr:country": "DE",
        "addr:housenumber": "9",
        "addr:postcode": "13127",
        "addr:street": "Bahnhofstra\u00dfe",
        "addr:suburb": "Franz\u00f6sisch Buchholz",
        "check_date:opening_hours": "2025-05-12",
        "craft": "carpenter",
        "fuel:cng": "no",
        "fuel:lpg": "yes",
        "name": "Tischlerei Fuhsy",
        "opening_hours:signed": "no",
        "source": "http://www.gas-tankstellen.de"
      }
    },
    {
      "type": "node",
      "id": 1242905482,
      "lat": 52.5426401,
      "lon": 13.3633157,
      "tags": {
        "craft": "carpenter",
        "name": "Tischlerei Manfred Reischke",
        "note": "Beim Rundgang am 20.10.14 nicht gefunden"
      }
    },
    {
      "type": "node",
      "id": 1339919275,
      "lat": 52.4955899,
      "lon": 13.5319122,
      "tags": {
        "addr:city": "Berlin",
        "addr:country": "DE",
        "addr:housename": "Fedtke Bautischlerei",
        "addr:housenumber": "13",
        "addr:postcode": "10318",
        "addr:street": "Ursula-Goetze-Stra\u00dfe",
        "addr:suburb": "Karlshorst",
        "check_date:opening_hours": "2022-03-22",
        "craft": "carpenter",
        "name": "Fedtke Bautischlerei",
        "opening_hours:signed": "no",
        "wheelchair": "no"
      }
    },
    {
      "type": "node",
      "id": 1562726042,
      "lat": 52.4767461,
      "lon": 13.6989473,
      "tags": {
        "craft": "carpenter",
        "name": "Innenausbau-Tischlerei Gr\u00e4fe"
      }
    },
    {
      "type": "node",
      "id": 1935182225,
      "lat": 52.4289096,
      "lon": 13.5209926,
      "tags": {
        "craft": "carpenter",
        "name": "Tischlerei Ruhdi",
        "website": "https://www.ruhdi.com/"
      }
    },
    {
      "type": "node",
      "id": 2668465565,
      "lat": 52.3876968,
      "lon": 13.0805723,
      "tags": {
        "addr:city": "Potsdam",
        "addr:country": "DE",
        "addr:housenumber": "9",
        "addr:postcode": "14473",
        "addr:street": "Schlaatzweg",
        "addr:suburb": "Teltower Vorstadt",
        "contact:facebook": "https://www.facebook.com/p/Tischlerei-Construct-Beschlaghandel-100059939190133/",
        "contact:fax": "+49 331 60054400",
        "contact:mobile": "+49 171 5293703",
        "contact:phone": "+49 331 60086199",
        "contact:website": "https://tischlerei-construct-beschlaghandel.de/",
        "craft": "carpenter",
        "name": "Tischlerei Construct & Beschlaghandel",
        "operator": "Ren\u00e9 Nowotny, Thomas Mielke"
      }
    },
    {
      "type": "node",
      "id": 2733146374,
      "lat": 52.6290053,
      "lon": 13.7314087,
      "tags": {
        "craft": "joiner",
        "name": "Werneuchener Tischlerei & Handels GmbH"
      }
    },
    {
      "type": "node",
      "id": 2763865265,
      "lat": 52.4632507,
      "lon": 13.4421101,
      "tags": {
        "addr:city": "Berlin",
        "addr:country": "DE",
        "addr:housenumber": "11",
        "addr:postcode": "12051",
        "addr:street": "Juliushof",
        "craft": "carpenter",
        "name": "Tischlerei Krautzig GmbH",
        "phone": "+49 30 50898480",
        "source": "http://www.tischlerei-krautzig.de/",
        "website": "http://www.tischlerei-krautzig.de/"
      }
    },
    {
      "type": "node",
      "id": 3919438458,
      "lat": 52.4406221,
      "lon": 13.3121403,
      "tags": {
        "addr:city": "Berlin",
        "addr:housenumber": "7",
        "addr:postcode": "12203",
        "addr:street": "D\u00fcrerstra\u00dfe",
        "craft": "carpenter",
        "name": "Tischlerei Risse",
        "opening_hours": "Mo-Fr 07:00-16:00",
        "operator": "Martina Risse"
      }
    },
    {
      "type": "node",
      "id": 4383735009,
      "lat": 52.4900945,
      "lon": 13.356336,
      "tags": {
        "addr:city": "Berlin",
        "addr:country": "DE",
        "addr:housenumber": "88",
        "addr:postcode": "10823",
        "addr:street": "Grunewaldstra\u00dfe",
        "addr:suburb": "Sch\u00f6neberg",
        "craft": "joiner",
        "email": "mail@schreinermeister-link.de",
        "fax": "+49 30 85 72 83 90",
        "name": "Schreinermeister Matthias Link",
        "phone": "+49 30 85 72 78 72",
        "website": "http://www.schreinermeister-link.de/"
      }
    },
    {
      "type": "node",
      "id": 4672835105,
      "lat": 52.499019,
      "lon": 13.4641966,
      "tags": {
        "addr:city": "Berlin",
        "addr:housenumber": "56",
        "addr:postcode": "10245",
        "addr:street": "Corinthstra\u00dfe",
        "check_date:opening_hours": "2020-11-30",
        "contact:phone": "+49302920628",
        "craft": "carpenter",
        "description": "2. Hof",
        "name": "Tischlerei F. Vogt",
        "opening_hours": "07:00-15:00"
      }
    },
    {
      "type": "node",
      "id": 4919044469,
      "lat": 52.5565734,
      "lon": 13.3843857,
      "tags": {
        "check_date": "2023-07-13",
        "craft": "joiner",
        "name": "Tischlerei Holzbock",
        "phone": "+49 30 4921663"
      }
    },
    {
      "type": "node",
      "id": 4969666321,
      "lat": 52.4140549,
      "lon": 13.0308272,
      "tags": {
        "addr:city": "Potsdam",
        "addr:country": "DE",
        "addr:housenumber": "3",
        "addr:postcode": "14469",
        "addr:street": "Schulplatz",
        "carpenter": "cabinetmaker",
        "craft": "carpenter",
        "name": "Stellmacherei und Tischlerei Riek",
        "phone": "+49 331 86742167",
        "website": "https://www.stellmacherei-riek.de/"
      }
    },
    {
      "type": "node",
      "id": 5810887818,
      "lat": 52.4802715,
      "lon": 13.3512842,
      "tags": {
        "addr:city": "Berlin",
        "addr:housenumber": "50",
        "addr:postcode": "10827",
        "addr:street": "Dominicusstra\u00dfe",
        "craft": "joiner",
        "name": "Bau- und M\u00f6beltischlerei Mohajer",
        "operator": "Mohajer-Mohhasel Massoud"
      }
    },
    {
      "type": "node",
      "id": 5818231106,
      "lat": 52.504762,
      "lon": 13.5887857,
      "tags": {
        "addr:city": "Berlin",
        "addr:country": "DE",
        "addr:housenumber": "52",
        "addr:postcode": "12621",
        "addr:street": "Alt-Kaulsdorf",
        "addr:suburb": "Kaulsdorf",
        "check_date": "2024-02-13",
        "craft": "joiner",
        "name": "Hobbytischlerei f\u00fcr Jederman",
        "source": "Geoportal Berlin / Hauskoordinaten",
        "website": "https://www.hobbytischlerei.de/"
      }
    },
    {
      "type": "node",
      "id": 5832034239,
      "lat": 52.3920519,
      "lon": 13.5433227,
      "tags": {
        "addr:city": "Berlin",
        "addr:country": "DE",
        "addr:housenumber": "70",
        "addr:postcode": "12526",
        "addr:street": "Alexander-Mei\u00dfner-Stra\u00dfe",
        "addr:suburb": "Bohnsdorf",
        "craft": "joiner",
        "name": "J. Beckmann Tischlerei"
      }
    },
    {
      "type": "node",
      "id": 5913405343,
      "lat": 52.5365494,
      "lon": 13.4545961,
      "tags": {
        "craft": "carpenter",
        "name": "Tischlerei Liebel",
        "operator": "Harald Liebel",
        "website": "https://www.tischlerei-liebel.de/"
      }
    },
    {
      "type": "node",
      "id": 6176650523,
      "lat": 52.5689294,
      "lon": 13.3808667,
      "tags": {
        "addr:city": "Berlin",
        "addr:country": "DE",
        "addr:housenumber": "5",
        "addr:postcode": "13409",
        "addr:street": "Granatenstra\u00dfe",
        "addr:suburb": "Reinickendorf",
        "contact:email": "info@tischlerei-stellmacher.de",
        "contact:fax": "+49 30 4922982",
        "contact:phone": "+49 30 4911367",
        "contact:website": "http://www.tischlerei-stellmacher.de",
        "craft": "window_construction",
        "description": "Tischlerei Stellmacher GmbH - Alles rund um Fenster und T\u00fcren",
        "name": "Tischlerei Stellmacher",
        "operator": "Gesch\u00e4ftsf\u00fchrer: Dipl. Ing. Katrin Stellmacher, Dipl. Ing. Christoph Linke, G\u00fcnter Stellmacher (Tischlermeister)",
        "start_date": "1957"
      }
    },
    {
      "type": "node",
      "id": 6228371327,
      "lat": 52.5682374,
      "lon": 13.3677379,
      "tags": {
        "addr:housenumber": "17",
        "addr:street": "Amendestra\u00dfe",
        "check_date:opening_hours": "2025-01-17",
        "craft": "carpenter",
        "description": "Bau- und M\u00f6beltischlerei",
        "fax": "+49 30 4962229",
        "name": "Tischlerei Petzold",
        "opening_hours:signed": "no",
        "phone": "+49 30 4960202",
        "wheelchair": "no"
      }
    },
    {
      "type": "node",
      "id": 6717815374,
      "lat": 52.6515932,
      "lon": 13.0094486,
      "tags": {
        "addr:city": "Sch\u00f6nwalde-Glien",
        "addr:country": "DE",
        "addr:housenumber": "2",
        "addr:postcode": "14621",
        "addr:street": "Steege",
        "addr:suburb": "Perwenitz",
        "carpenter": "trim",
        "contact:email": "Holz@Tischlerei-Duering.de",
        "contact:phone": "+49 33231 602 38",
        "contact:website": "http://www.tischlerei-duering.de/",
        "craft": "carpenter",
        "name": "Tischlerei D\u00fcring",
        "start_date": "1900"
      }
    },
    {
      "type": "node",
      "id": 7280859416,
      "lat": 52.5440795,
      "lon": 13.4177383,
      "tags": {
        "addr:city": "Berlin",
        "addr:country": "DE",
        "addr:housenumber": "45",
        "addr:postcode": "10437",
        "addr:street": "Lychener Stra\u00dfe",
        "addr:suburb": "Prenzlauer Berg",
        "check_date": "2024-01-02",
        "craft": "carpenter",
        "name": "Tischlerei Korkladen",
        "opening_hours": "Mo-Fr 14:00-18:30"
      }
    },
    {
      "type": "node",
      "id": 7573498986,
      "lat": 52.4354536,
      "lon": 13.6993826,
      "tags": {
        "craft": "joiner",
        "name": "Tischlerei Zedler"
      }
    },
    {
      "type": "node",
      "id": 7659404099,
      "lat": 52.480006,
      "lon": 13.345657,
      "tags": {
        "addr:city": "Berlin",
        "addr:country": "DE",
        "addr:housenumber": "59",
        "addr:postcode": "10827",
        "addr:street": "Hauptstra\u00dfe",
        "addr:suburb": "Sch\u00f6neberg",
        "craft": "joiner",
        "name": "Otto Bau- und M\u00f6beltischlerei"
      }
    },
    {
      "type": "node",
      "id": 8261764937,
      "lat": 52.4303556,
      "lon": 13.755202,
      "tags": {
        "addr:city": "Erkner",
        "addr:housenumber": "12",
        "addr:postcode": "15537",
        "addr:street": "Julius-R\u00fctgers-Stra\u00dfe",
        "craft": "joiner",
        "name": "Tischlerei R. Busse GmbH"
      }
    },
    {
      "type": "node",
      "id": 8393944494,
      "lat": 52.5618161,
      "lon": 13.3776003,
      "tags": {
        "check_date": "2023-08-15",
        "craft": "cabinet_maker",
        "email": "info@tischlerei-thiemich.de",
        "name": "V. Thiemich Bau- und M\u00f6beltischlerei"
      }
    },
    {
      "type": "node",
      "id": 8744166659,
      "lat": 52.4527706,
      "lon": 13.3217816,
      "tags": {
        "addr:city": "Berlin",
        "addr:housenumber": "19",
        "addr:postcode": "12165",
        "addr:street": "Sch\u00fctzenstra\u00dfe",
        "craft": "joiner",
        "name": "Tischlerei Wild-Werkst\u00e4tten",
        "phone": "+49 30 4514016",
        "website": "http://www.wildwerkstaetten.de"
      }
    },
    {
      "type": "node",
      "id": 9450251715,
      "lat": 52.4533925,
      "lon": 13.548684,
      "tags": {
        "addr:city": "Berlin",
        "addr:country": "DE",
        "addr:housenumber": "140",
        "addr:inclusion": "potential",
        "addr:postcode": "12439",
        "addr:street": "Bruno-B\u00fcrgel-Weg",
        "addr:suburb": "Niedersch\u00f6neweide",
        "contact:email": "info@tischlerei-kuehne.de",
        "contact:phone": "+49 30 29001570",
        "craft": "joiner",
        "name": "Tischlerei Thomas K\u00fchne",
        "opening_hours": "Mo-Th 7:00-16:30; Fr 7:00-12:30"
      }
    },
    {
      "type": "node",
      "id": 9592635559,
      "lat": 52.6034506,
      "lon": 13.8207478,
      "tags": {
        "addr:city": "Altlandsberg",
        "addr:housenumber": "20A",
        "addr:postcode": "15345",
        "addr:street": "Dorfstra\u00dfe",
        "addr:suburb": "Wesendahl",
        "craft": "joiner",
        "name": "Tischlerei Hochschild",
        "phone": "+4917670436730",
        "website": "https://www.tischlerei-hochschild.de"
      }
    },
    {
      "type": "node",
      "id": 9633283245,
      "lat": 52.5759138,
      "lon": 13.3520256,
      "tags": {
        "craft": "builder",
        "name": "F.B. Tischlerei Kliche GmbH"
      }
    },
    {
      "type": "node",
      "id": 9816576690,
      "lat": 52.5095531,
      "lon": 13.2786483,
      "tags": {
        "check_date": "2024-10-16",
        "craft": "joiner",
        "name": "Tischlerei Peter Carstensen"
      }
    },
    {
      "type": "node",
      "id": 9885257715,
      "lat": 52.4336599,
      "lon": 13.3660376,
      "tags": {
        "addr:city": "Berlin",
        "addr:country": "DE",
        "addr:housenumber": "67A",
        "addr:postcode": "12249",
        "addr:street": "Haynauer Stra\u00dfe",
        "addr:suburb": "Lankwitz",
        "contact:email": "post@tischleria.de",
        "contact:phone": "03068088796",
        "contact:website": "www.tischleria.de",
        "craft": "cabinet_maker",
        "email": "post@tischleria.de",
        "name": "Tischleria GmbH",
        "opening_hours": "Mo-Fr 08:00-17:00 \"auf Anfrage\"",
        "operator": "Tischleria GmbH",
        "phone": "03068088796",
        "website": "www.tischleria.de"
      }
    },
    {
      "type": "node",
      "id": 9957295655,
      "lat": 52.3935531,
      "lon": 13.2436154,
      "tags": {
        "addr:city": "Teltow",
        "addr:country": "DE",
        "addr:floor": "1",
        "addr:housename": "Haus 2",
        "addr:housenumber": "8",
        "addr:postcode": "14513",
        "addr:street": "Iserstra\u00dfe",
        "craft": "joiner",
        "name": "Tischlerei",
        "operator": "USE gGmbH",
        "website": "https://u-s-e.org/"
      }
    },
    {
      "type": "node",
      "id": 10003860053,
      "lat": 52.5136575,
      "lon": 13.2924869,
      "tags": {
        "check_date": "2022-09-06",
        "craft": "joiner",
        "name": "Kunst - und M\u00f6beltischlerei Charlottenburg",
        "operator": "Thomas Jaunig",
        "phone": "+49 30 30306461"
      }
    },
    {
      "type": "node",
      "id": 10772558234,
      "lat": 52.5068999,
      "lon": 13.4940203,
      "tags": {
        "addr:city": "Berlin",
        "addr:housenumber": "31-34",
        "addr:postcode": "10317",
        "addr:street": "Sophienstra\u00dfe",
        "contact:phone": "+49 30 52698833",
        "contact:website": "https://www.tischlerei-megat.de/",
        "craft": "joiner",
        "name": "Tischlerei megat",
        "operator": "Tischlerei megat GmbH"
      }
    },
    {
      "type": "node",
      "id": 11252629888,
      "lat": 52.5007114,
      "lon": 13.4294591,
      "tags": {
        "addr:city": "Berlin",
        "addr:housenumber": "1",
        "addr:postcode": "10997",
        "addr:street": "Lausitzerplatz",
        "craft": "carpenter",
        "name": "Kieztischler",
        "opening_hours": "Mo-Fr 09:00-17:00",
        "phone": "+49 170 9599742"
      }
    },
    {
      "type": "node",
      "id": 11437707494,
      "lat": 52.6685086,
      "lon": 13.5287916,
      "tags": {
        "addr:city": "Bernau bei Berlin",
        "addr:country": "DE",
        "addr:housenumber": "33",
        "addr:postcode": "16321",
        "addr:street": "Berliner Allee",
        "addr:suburb": "Sch\u00f6now",
        "craft": "carpenter",
        "name": "Tischler Peter"
      }
    },
    {
      "type": "node",
      "id": 12176463697,
      "lat": 52.5206319,
      "lon": 13.4669785,
      "tags": {
        "addr:housenumber": "35",
        "addr:street": "Eldenaer Stra\u00dfe",
        "craft": "joiner",
        "name": "Horeba - Holzrestauration und Bautischlerei",
        "phone": "+49 30 2938160",
        "website": "http://horeba.berlin/"
      }
    },
    {
      "type": "node",
      "id": 12389886406,
      "lat": 52.6572237,
      "lon": 13.4445048,
      "tags": {
        "addr:city": "Wandlitz",
        "addr:country": "DE",
        "addr:housenumber": "7a",
        "addr:postcode": "16348",
        "addr:street": "Sch\u00f6nerlinder Chaussee",
        "addr:suburb": "Sch\u00f6nerlinde",
        "contact:mobile": "+49 160 2800800",
        "contact:website": "https://www.tischlerei-mietzner.de/",
        "craft": "joiner",
        "name": "Tischlerei Marco Mietzner",
        "operator": "Tischlerei Marco Mietzner UG (haftungsbeschr\u00e4nkt)"
      }
    },
    {
      "type": "node",
      "id": 12709986026,
      "lat": 52.4687839,
      "lon": 13.4339577,
      "tags": {
        "craft": "joiner",
        "name": "Tischlerei Thiess"
      }
    },
    {
      "type": "way",
      "id": 28574663,
      "nodes": [
        313876566,
        313876569,
        313876571,
        313876570,
        313876566
      ],
      "tags": {
        "addr:city": "Berlin",
        "addr:country": "DE",
        "addr:housenumber": "28/30",
        "addr:postcode": "13405",
        "addr:street": "Nordlichtstra\u00dfe",
        "addr:suburb": "Reinickendorf",
        "building": "yes",
        "building:levels": "1",
        "craft": "joiner",
        "email": "Email@Tischlerei-KuV.de",
        "fax": "+49 304040947",
        "name": "Tischlerei K & V",
        "phone": "+49 304040946",
        "website": "https://www.tischlerei-kuv.de/"
      }
    },
    {
      "type": "way",
      "id": 33949317,
      "nodes": [
        389029667,
        389029668,
        389029669,
        389029670,
        389029667
      ],
      "tags": {
        "building": "commercial",
        "building:levels": "1",
        "craft": "carpenter",
        "name": "Tischlerei H\u00e4tscher",
        "website": "https://hmi-tischlerei.de/"
      }
    },
    {
      "type": "way",
      "id": 42269465,
      "nodes": [
        2942292323,
        2942291032,
        2942293306,
        2942290826,
        2942290928,
        2942292203,
        2942291131,
        2942293308,
        2942291519,
        2942293310,
        2942292323
      ],
      "tags": {
        "addr:city": "Berlin",
        "addr:housenumber": "17",
        "addr:postcode": "13467",
        "addr:street": "Hohefeldstra\u00dfe",
        "building": "industrial",
        "craft": "carpenter",
        "name": "Tischlerei Gegusch & Sohn",
        "opening_hours:signed": "no"
      }
    },
    {
      "type": "way",
      "id": 70020806,
      "nodes": [
        8790200991,
        8790200984,
        8790200985,
        8790200986,
        8790200987,
        8790200988,
        8790200989,
        8790200990,
        8790200992,
        836591786,
        836591788,
        2625708266,
        836591791,
        836591792,
        836591795,
        836591796,
        836591797,
        2625708315,
        2625708318,
        8790200991
      ],
      "tags": {
        "addr:city": "Ahrensfelde",
        "addr:country": "DE",
        "addr:housenumber": "5",
        "addr:postcode": "16356",
        "addr:street": "M\u00f6bel-H\u00fcbner-Stra\u00dfe",
        "addr:suburb": "Blumberg",
        "craft": "builder",
        "name": "Karin Reinwald Holzbautenvertrieb",
        "phone": "+49 33394 70757"
      }
    },
    {
      "type": "way",
      "id": 76995098,
      "nodes": [
        906690643,
        906690587,
        906690548,
        906690791,
        906690643
      ],
      "tags": {
        "addr:city": "Wandlitz",
        "addr:housenumber": "10",
        "addr:postcode": "16348",
        "addr:street": "Steinweg",
        "building": "yes",
        "craft": "carpenter",
        "email": "MF.Tischlerei@t-online.de",
        "fax": "+49 33397 22004",
        "name": "M\u00f6bel- u. Bautischlerei Friedrich GmbH",
        "phone": "+49 33397 21433",
        "website": "https://www.tischlereifriedrich.de/"
      }
    },
    {
      "type": "way",
      "id": 76995101,
      "nodes": [
        906690695,
        906690656,
        906690802,
        906690698,
        906690695
      ],
      "tags": {
        "addr:city": "Wandlitz",
        "addr:housenumber": "6",
        "addr:postcode": "16348",
        "addr:street": "Ziegelweg",
        "building": "yes",
        "craft": "carpenter",
        "name": "Tischlerei B. Rieger",
        "phone": "+49 33397 72906"
      }
    },
    {
      "type": "way",
      "id": 113056901,
      "nodes": [
        1283271282,
        1283271029,
        8662329836,
        8662329837,
        8662329835,
        1283272182,
        1283271282
      ],
      "tags": {
        "addr:city": "Hohen Neuendorf",
        "addr:country": "DE",
        "addr:housenumber": "17",
        "addr:postcode": "16562",
        "addr:street": "Parkstra\u00dfe",
        "building": "yes",
        "craft": "joiner",
        "email": "mail@woschinik.de",
        "fax": "+49 3303 50960 6",
        "name": "Tischlerei Woschinik",
        "operator": "Helmut Woschinik & Sohn GbR Bau- und M\u00f6beltischlerei",
        "phone": "+49 3303 50960 5",
        "website": "http://www.woschinik.de/"
      }
    },
    {
      "type": "way",
      "id": 207757715,
      "nodes": [
        2180069023,
        6634687821,
        6634687822,
        2180069021,
        6486475480,
        2180069018,
        2180069019,
        2180069023
      ],
      "tags": {
        "addr:city": "Berlin",
        "addr:country": "DE",
        "addr:housenumber": "20",
        "addr:postcode": "10317",
        "addr:street": "K\u00f6penicker Chaussee",
        "addr:suburb": "Rummelsburg",
        "building": "commercial",
        "building:levels": "2",
        "check_date": "2025-05-09",
        "contact:phone": "+49 30 61285151",
        "contact:website": "http://www.moebeltischlerei-masswerk.de/",
        "craft": "carpenter",
        "name": "Tischlerei Ma\u00dfwerk",
        "operator": "Ma\u00dfwerk e.K.",
        "roof:shape": "flat"
      }
    },
    {
      "type": "way",
      "id": 264076056,
      "nodes": [
        2697513155,
        2697513168,
        2697513173,
        2697513172,
        2697513161,
        2697513163,
        2697513155
      ],
      "tags": {
        "addr:city": "Panketal",
        "addr:housenumber": "39",
        "addr:postcode": "16341",
        "addr:street": "Bucher Stra\u00dfe",
        "addr:suburb": "Zepernick",
        "building": "yes",
        "craft": "carpenter",
        "name": "Tischlerei Peter Hanert",
        "phone": "+49 30 9444019",
        "website": "https://www.tischlerei-hanert.de/"
      }
    },
    {
      "type": "way",
      "id": 270587191,
      "nodes": [
        3905501145,
        3905501125,
        3905501127,
        3905501120,
        3905501121,
        3905501149,
        3905501145
      ],
      "tags": {
        "building": "yes",
        "craft": "carpenter",
        "name": "Tischlerei Klabunde"
      }
    },
    {
      "type": "way",
      "id": 299446675,
      "nodes": [
        3034407334,
        3034407335,
        3034407336,
        3034407337,
        3034407334
      ],
      "tags": {
        "addr:city": "Nuthetal",
        "addr:country": "DE",
        "addr:housenumber": "15",
        "addr:postcode": "14558",
        "addr:street": "Schumannstra\u00dfe",
        "building": "residential",
        "craft": "joiner",
        "name": "Tischlerei K\u00f6nitzer",
        "website": "https://www.tischlerei-koenitzer.de"
      }
    },
    {
      "type": "way",
      "id": 307749506,
      "nodes": [
        3129514362,
        3129514347,
        3129514342,
        3129514360,
        3129514362
      ],
      "tags": {
        "addr:housenumber": "77",
        "addr:postcode": "12681",
        "addr:street": "Hatzenporter Weg",
        "building": "commercial",
        "building:levels": "1",
        "craft": "carpenter",
        "landuse": "commercial",
        "name": "Tischlerei Hoffmann GmbH",
        "opening_hours:signed": "no",
        "roof:levels": "1",
        "roof:shape": "gabled"
      }
    },
    {
      "type": "way",
      "id": 308407303,
      "nodes": [
        3136924405,
        3136924406,
        3136924407,
        3136924411,
        2844619383,
        3136924414,
        3136924400,
        3136924394,
        3136924405
      ],
      "tags": {
        "addr:city": "Berlin",
        "addr:country": "DE",
        "addr:housenumber": "16",
        "addr:postcode": "12559",
        "addr:street": "M\u00fcggellandstra\u00dfe",
        "addr:suburb": "M\u00fcggelheim",
        "building": "commercial",
        "craft": "joiner",
        "name": "Tischlerei Gert Zyniewicz",
        "source": "Geoportal Berlin / Hauskoordinaten",
        "website": "http://www.tischlerei-gz.de"
      }
    },
    {
      "type": "way",
      "id": 328950222,
      "nodes": [
        3357706820,
        3357706817,
        3357706815,
        3357706811,
        3357706818,
        3357706821,
        3357706813,
        3357706816,
        2773815321,
        3357706819,
        3357706814,
        3357706812,
        3357706820
      ],
      "tags": {
        "addr:city": "Woltersdorf",
        "addr:country": "DE",
        "addr:housenumber": "22",
        "addr:postcode": "15569",
        "addr:street": "Baumschulenstra\u00dfe",
        "building": "yes",
        "craft": "carpenter",
        "name": "Tischlerei Perschke",
        "phone": "+49 3362 504467"
      }
    },
    {
      "type": "way",
      "id": 894839718,
      "nodes": [
        8317813552,
        8317813551,
        8317813550,
        8317813549,
        8317813552
      ],
      "tags": {
        "addr:city": "Spreenhagen",
        "addr:country": "DE",
        "addr:housenumber": "11B",
        "addr:postcode": "15528",
        "addr:street": "Schulstra\u00dfe",
        "addr:suburb": "Hartmannsdorf",
        "building": "yes",
        "craft": "joiner",
        "name": "Tischlerei Kleinert"
      }
    },
    {
      "type": "way",
      "id": 923251065,
      "nodes": [
        8570521898,
        8570521899,
        8570521900,
        8570521903,
        8570521904,
        8570521905,
        8570521902,
        8570521901,
        8570521898
      ],
      "tags": {
        "building": "yes",
        "craft": "carpenter",
        "name": "Tischlerei Schade",
        "website": "https://www.kindermoebel-schade.de/"
      }
    },
    {
      "type": "way",
      "id": 1064518889,
      "nodes": [
        9776584620,
        9776584616,
        9776584615,
        9776584614,
        9776584613,
        9776584619,
        2014912602,
        9776584649,
        2014912607,
        9776584648,
        9776584647,
        9776584646,
        9776584641,
        9776584642,
        9776584643,
        9776584617,
        9776584669,
        9776584676,
        9776584680,
        9776584620
      ],
      "tags": {
        "addr:city": "Potsdam",
        "addr:country": "DE",
        "addr:housenumber": "74b",
        "addr:postcode": "14482",
        "addr:street": "Bruno-H.-B\u00fcrgel-Stra\u00dfe",
        "addr:suburb": "Babelsberg Nord",
        "contact:email": "firma@tischlerei-praetsch.de",
        "contact:fax": "+49 331 740 0355",
        "contact:phone": "+49 331 705 832",
        "contact:website": "http://www.tischlerei-praetsch.de/",
        "craft": "joiner",
        "landuse": "commercial",
        "name": "Tischlerei Frank Praetsch",
        "operator": "Frank Praetsch",
        "operator:type": "private",
        "ref:vatin": "DE254310186"
      }
    },
    {
      "type": "node",
      "id": 3034407334,
      "lat": 52.3560742,
      "lon": 13.0972568
    },
    {
      "type": "node",
      "id": 3034407335,
      "lat": 52.3560204,
      "lon": 13.0974154
    },
    {
      "type": "node",
      "id": 3034407336,
      "lat": 52.3559433,
      "lon": 13.0973453
    },
    {
      "type": "node",
      "id": 3034407337,
      "lat": 52.3559972,
      "lon": 13.0971867
    },
    {
      "type": "node",
      "id": 2014912602,
      "lat": 52.4024782,
      "lon": 13.1036381
    },
    {
      "type": "node",
      "id": 2014912607,
      "lat": 52.4025406,
      "lon": 13.1037294
    },
    {
      "type": "node",
      "id": 9776584613,
      "lat": 52.4024711,
      "lon": 13.1035433
    },
    {
      "type": "node",
      "id": 9776584614,
      "lat": 52.4024621,
      "lon": 13.1035278
    },
    {
      "type": "node",
      "id": 9776584615,
      "lat": 52.4024719,
      "lon": 13.103504
    },
    {
      "type": "node",
      "id": 9776584616,
      "lat": 52.4025113,
      "lon": 13.1033833
    },
    {
      "type": "node",
      "id": 9776584617,
      "lat": 52.4026893,
      "lon": 13.1039451
    },
    {
      "type": "node",
      "id": 9776584619,
      "lat": 52.4024428,
      "lon": 13.1035959
    },
    {
      "type": "node",
      "id": 9776584620,
      "lat": 52.4025546,
      "lon": 13.1032275
    },
    {
      "type": "node",
      "id": 9776584641,
      "lat": 52.4026537,
      "lon": 13.1038958
    },
    {
      "type": "node",
      "id": 9776584642,
      "lat": 52.402655,
      "lon": 13.1038935
    },
    {
      "type": "node",
      "id": 9776584643,
      "lat": 52.4026836,
      "lon": 13.1039353
    },
    {
      "type": "node",
      "id": 9776584646,
      "lat": 52.4026377,
      "lon": 13.1038723
    },
    {
      "type": "node",
      "id": 9776584647,
      "lat": 52.40263,
      "lon": 13.1038863
    },
    {
      "type": "node",
      "id": 9776584648,
      "lat": 52.4025327,
      "lon": 13.1037439
    },
    {
      "type": "node",
      "id": 9776584649,
      "lat": 52.4024827,
      "lon": 13.1036448
    },
    {
      "type": "node",
      "id": 9776584669,
      "lat": 52.4027712,
      "lon": 13.1037849
    },
    {
      "type": "node",
      "id": 9776584676,
      "lat": 52.4028037,
      "lon": 13.1037214
    },
    {
      "type": "node",
      "id": 9776584680,
      "lat": 52.402832,
      "lon": 13.1036661
    },
    {
      "type": "node",
      "id": 2942292323,
      "lat": 52.6216783,
      "lon": 13.3037957
    },
    {
      "type": "node",
      "id": 2942293306,
      "lat": 52.6216396,
      "lon": 13.3037898
    },
    {
      "type": "node",
      "id": 2942290826,
      "lat": 52.6216145,
      "lon": 13.3038188
    },
    {
      "type": "node",
      "id": 2942290928,
      "lat": 52.6216292,
      "lon": 13.3038533
    },
    {
      "type": "node",
      "id": 2942291032,
      "lat": 52.621654,
      "lon": 13.3038236
    },
    {
      "type": "node",
      "id": 2942291131,
      "lat": 52.6217399,
      "lon": 13.3042768
    },
    {
      "type": "node",
      "id": 2942291519,
      "lat": 52.6217776,
      "lon": 13.3042881
    },
    {
      "type": "node",
      "id": 2942292203,
      "lat": 52.6215823,
      "lon": 13.3039072
    },
    {
      "type": "node",
      "id": 2942293308,
      "lat": 52.6217626,
      "lon": 13.3042516
    },
    {
      "type": "node",
      "id": 2942293310,
      "lat": 52.6218527,
      "lon": 13.3042045
    },
    {
      "type": "node",
      "id": 313876566,
      "lat": 52.5642912,
      "lon": 13.3226609
    },
    {
      "type": "node",
      "id": 313876569,
      "lat": 52.5640758,
      "lon": 13.3225155
    },
    {
      "type": "node",
      "id": 313876570,
      "lat": 52.5643621,
      "lon": 13.3223768
    },
    {
      "type": "node",
      "id": 313876571,
      "lat": 52.5641467,
      "lon": 13.3222314
    },
    {
      "type": "node",
      "id": 1283271029,
      "lat": 52.6613031,
      "lon": 13.2922563
    },
    {
      "type": "node",
      "id": 1283271282,
      "lat": 52.6613248,
      "lon": 13.2920485
    },
    {
      "type": "node",
      "id": 1283272182,
      "lat": 52.6611705,
      "lon": 13.2920037
    },
    {
      "type": "node",
      "id": 8662329835,
      "lat": 52.6611582,
      "lon": 13.2921315
    },
    {
      "type": "node",
      "id": 8662329836,
      "lat": 52.6611042,
      "lon": 13.2921998
    },
    {
      "type": "node",
      "id": 8662329837,
      "lat": 52.6611129,
      "lon": 13.2921183
    },
    {
      "type": "node",
      "id": 3905501120,
      "lat": 52.4346663,
      "lon": 13.4345145
    },
    {
      "type": "node",
      "id": 3905501121,
      "lat": 52.4346677,
      "lon": 13.4345705
    },
    {
      "type": "node",
      "id": 3905501125,
      "lat": 52.4346735,
      "lon": 13.4343745
    },
    {
      "type": "node",
      "id": 3905501127,
      "lat": 52.4346763,
      "lon": 13.434514
    },
    {
      "type": "node",
      "id": 3905501145,
      "lat": 52.4347429,
      "lon": 13.4343688
    },
    {
      "type": "node",
      "id": 3905501149,
      "lat": 52.4347469,
      "lon": 13.4345642
    },
    {
      "type": "node",
      "id": 2844619383,
      "lat": 52.4163374,
      "lon": 13.6589466
    },
    {
      "type": "node",
      "id": 3136924394,
      "lat": 52.4160636,
      "lon": 13.6592142
    },
    {
      "type": "node",
      "id": 3136924400,
      "lat": 52.4161631,
      "lon": 13.6593604
    },
    {
      "type": "node",
      "id": 3136924405,
      "lat": 52.4162637,
      "lon": 13.6588399
    },
    {
      "type": "node",
      "id": 3136924406,
      "lat": 52.4162941,
      "lon": 13.6588839
    },
    {
      "type": "node",
      "id": 3136924407,
      "lat": 52.4163126,
      "lon": 13.658882
    },
    {
      "type": "node",
      "id": 3136924411,
      "lat": 52.4163362,
      "lon": 13.6589162
    },
    {
      "type": "node",
      "id": 3136924414,
      "lat": 52.416365,
      "lon": 13.6589866
    },
    {
      "type": "node",
      "id": 8317813549,
      "lat": 52.3496915,
      "lon": 13.8327825
    },
    {
      "type": "node",
      "id": 8317813550,
      "lat": 52.3498266,
      "lon": 13.8327275
    },
    {
      "type": "node",
      "id": 8317813551,
      "lat": 52.3498052,
      "lon": 13.8325864
    },
    {
      "type": "node",
      "id": 8317813552,
      "lat": 52.34967,
      "lon": 13.8326414
    },
    {
      "type": "node",
      "id": 2180069019,
      "lat": 52.483005,
      "lon": 13.5003322
    },
    {
      "type": "node",
      "id": 2180069023,
      "lat": 52.4831459,
      "lon": 13.5004026
    },
    {
      "type": "node",
      "id": 2180069018,
      "lat": 52.4829174,
      "lon": 13.5008049
    },
    {
      "type": "node",
      "id": 2180069021,
      "lat": 52.4830841,
      "lon": 13.5008304
    },
    {
      "type": "node",
      "id": 6486475480,
      "lat": 52.483041,
      "lon": 13.5008667
    },
    {
      "type": "node",
      "id": 6634687821,
      "lat": 52.483124,
      "lon": 13.5005211
    },
    {
      "type": "node",
      "id": 6634687822,
      "lat": 52.4831399,
      "lon": 13.5005291
    },
    {
      "type": "node",
      "id": 389029667,
      "lat": 52.5083312,
      "lon": 13.4835734
    },
    {
      "type": "node",
      "id": 389029668,
      "lat": 52.5082923,
      "lon": 13.4839317
    },
    {
      "type": "node",
      "id": 389029669,
      "lat": 52.5079152,
      "lon": 13.4838204
    },
    {
      "type": "node",
      "id": 389029670,
      "lat": 52.5079534,
      "lon": 13.4834656
    },
    {
      "type": "node",
      "id": 3129514342,
      "lat": 52.5209715,
      "lon": 13.5337581
    },
    {
      "type": "node",
      "id": 3129514347,
      "lat": 52.5210073,
      "lon": 13.5333846
    },
    {
      "type": "node",
      "id": 3129514360,
      "lat": 52.5210834,
      "lon": 13.5337869
    },
    {
      "type": "node",
      "id": 3129514362,
      "lat": 52.5211179,
      "lon": 13.533413
    },
    {
      "type": "node",
      "id": 2697513155,
      "lat": 52.6449912,
      "lon": 13.5247416
    },
    {
      "type": "node",
      "id": 2697513161,
      "lat": 52.6450105,
      "lon": 13.5247011
    },
    {
      "type": "node",
      "id": 2697513163,
      "lat": 52.6450161,
      "lon": 13.5247157
    },
    {
      "type": "node",
      "id": 2697513168,
      "lat": 52.6450294,
      "lon": 13.5248411
    },
    {
      "type": "node",
      "id": 2697513172,
      "lat": 52.64524,
      "lon": 13.5244616
    },
    {
      "type": "node",
      "id": 2697513173,
      "lat": 52.6452838,
      "lon": 13.5245757
    },
    {
      "type": "node",
      "id": 836591786,
      "lat": 52.6000011,
      "lon": 13.6024583
    },
    {
      "type": "node",
      "id": 836591788,
      "lat": 52.5999482,
      "lon": 13.6021291
    },
    {
      "type": "node",
      "id": 836591791,
      "lat": 52.5997816,
      "lon": 13.6016234
    },
    {
      "type": "node",
      "id": 836591792,
      "lat": 52.5997392,
      "lon": 13.6015812
    },
    {
      "type": "node",
      "id": 836591795,
      "lat": 52.5996482,
      "lon": 13.6015764
    },
    {
      "type": "node",
      "id": 836591796,
      "lat": 52.5995569,
      "lon": 13.6015871
    },
    {
      "type": "node",
      "id": 836591797,
      "lat": 52.599407,
      "lon": 13.6016944
    },
    {
      "type": "node",
      "id": 2625708266,
      "lat": 52.599905,
      "lon": 13.6019527
    },
    {
      "type": "node",
      "id": 2625708315,
      "lat": 52.5992873,
      "lon": 13.601833
    },
    {
      "type": "node",
      "id": 2625708318,
      "lat": 52.5992172,
      "lon": 13.6019175
    },
    {
      "type": "node",
      "id": 8790200984,
      "lat": 52.5992594,
      "lon": 13.6020712
    },
    {
      "type": "node",
      "id": 8790200985,
      "lat": 52.5994184,
      "lon": 13.602296
    },
    {
      "type": "node",
      "id": 8790200986,
      "lat": 52.5995389,
      "lon": 13.6024623
    },
    {
      "type": "node",
      "id": 8790200987,
      "lat": 52.5996347,
      "lon": 13.6025112
    },
    {
      "type": "node",
      "id": 8790200988,
      "lat": 52.5996819,
      "lon": 13.6025273
    },
    {
      "type": "node",
      "id": 8790200989,
      "lat": 52.599721,
      "lon": 13.6025246
    },
    {
      "type": "node",
      "id": 8790200990,
      "lat": 52.5997911,
      "lon": 13.6025132
    },
    {
      "type": "node",
      "id": 8790200991,
      "lat": 52.5991818,
      "lon": 13.6019614
    },
    {
      "type": "node",
      "id": 8790200992,
      "lat": 52.5999694,
      "lon": 13.6024683
    },
    {
      "type": "node",
      "id": 2773815321,
      "lat": 52.4568079,
      "lon": 13.7504363
    },
    {
      "type": "node",
      "id": 3357706811,
      "lat": 52.4569242,
      "lon": 13.750252
    },
    {
      "type": "node",
      "id": 3357706812,
      "lat": 52.4567387,
      "lon": 13.7500667
    },
    {
      "type": "node",
      "id": 3357706813,
      "lat": 52.4568514,
      "lon": 13.7503818
    },
    {
      "type": "node",
      "id": 3357706814,
      "lat": 52.4566863,
      "lon": 13.7500606
    },
    {
      "type": "node",
      "id": 3357706815,
      "lat": 52.4568557,
      "lon": 13.7501891
    },
    {
      "type": "node",
      "id": 3357706816,
      "lat": 52.456833,
      "lon": 13.7503645
    },
    {
      "type": "node",
      "id": 3357706817,
      "lat": 52.4568177,
      "lon": 13.7502849
    },
    {
      "type": "node",
      "id": 3357706818,
      "lat": 52.4568991,
      "lon": 13.7503216
    },
    {
      "type": "node",
      "id": 3357706819,
      "lat": 52.4566756,
      "lon": 13.7503117
    },
    {
      "type": "node",
      "id": 3357706820,
      "lat": 52.4567327,
      "lon": 13.750208
    },
    {
      "type": "node",
      "id": 3357706821,
      "lat": 52.4568794,
      "lon": 13.7503084
    },
    {
      "type": "node",
      "id": 906690548,
      "lat": 52.7015633,
      "lon": 13.4383161
    },
    {
      "type": "node",
      "id": 906690587,
      "lat": 52.7019853,
      "lon": 13.438386
    },
    {
      "type": "node",
      "id": 906690643,
      "lat": 52.701965,
      "lon": 13.43872
    },
    {
      "type": "node",
      "id": 906690656,
      "lat": 52.7011995,
      "lon": 13.4381573
    },
    {
      "type": "node",
      "id": 906690695,
      "lat": 52.7011758,
      "lon": 13.4385668
    },
    {
      "type": "node",
      "id": 906690698,
      "lat": 52.7010471,
      "lon": 13.4385466
    },
    {
      "type": "node",
      "id": 906690791,
      "lat": 52.701543,
      "lon": 13.4386502
    },
    {
      "type": "node",
      "id": 906690802,
      "lat": 52.7010707,
      "lon": 13.4381371
    },
    {
      "type": "node",
      "id": 8570521898,
      "lat": 52.6836495,
      "lon": 13.557356
    },
    {
      "type": "node",
      "id": 8570521899,
      "lat": 52.6832113,
      "lon": 13.5572639
    },
    {
      "type": "node",
      "id": 8570521900,
      "lat": 52.6831777,
      "lon": 13.5576995
    },
    {
      "type": "node",
      "id": 8570521901,
      "lat": 52.6836154,
      "lon": 13.5577984
    },
    {
      "type": "node",
      "id": 8570521902,
      "lat": 52.6835441,
      "lon": 13.5577834
    },
    {
      "type": "node",
      "id": 8570521903,
      "lat": 52.6832795,
      "lon": 13.5577209
    },
    {
      "type": "node",
      "id": 8570521904,
      "lat": 52.683268,
      "lon": 13.5578693
    },
    {
      "type": "node",
      "id": 8570521905,
      "lat": 52.6835331,
      "lon": 13.5579251
    }
  ]
}