[
    {
        "tags": {
            "addr:city": "Ahrensfelde",
            "addr:country": "DE",
            "addr:housenumber": "7",
            "addr:postcode": "16356",
            "addr:street": "Rudolf-Diesel-Straße",
            "addr:suburb": "Lindenberg",
            "brand": "Selgros",
            "brand:wikidata": "Q473918",
            "brand:wikipedia": "en:Selgros",
            "building": "retail",
            "building:levels": "2",
            "check_date:opening_hours": "2024-11-11",
            "name": "Selgros",
            "opening_hours": "Mo-Fr 06:00-22:00; Sa 08:00-19:30",
            "roof:levels": "0",
            "roof:shape": "flat",
            "shop": "wholesale",
            "short_name": "SELGROS",
            "website": "https://www.selgros.de/markt/lindenberg",
            "wheelchair": "yes"
        },
        "name": null
    },
    {
        "tags": {
            "addr:city": "Berlin",
            "addr:country": "DE",
            "addr:housenumber": "5",
            "addr:postcode": "10243",
            "addr:street": "An der Ostbahn",
            "addr:suburb": "Friedrichshain",
            "brand": "METRO",
            "brand:wikidata": "Q13610282",
            "brand:wikipedia": "en:Metro Cash & Carry",
            "building": "warehouse",
            "contact:phone": "+49 30 2757120",
            "contact:website": "https://www.metro.de/pages/DE/Standorte/032_METROBerlinFriedrichshain",
            "height": "12",
            "name": "METRO",
            "opening_hours": "Mo-Fr 07:00-22:00, Sa 07:00-20:00",
            "roof:shape": "flat",
            "shop": "wholesale",
            "wheelchair": "yes"
        },
        "name": null
    },
    {
        "tags": {
            "addr:city": "Falkensee",
            "addr:country": "DE",
            "addr:housenumber": "122-128",
            "addr:postcode": "14612",
            "addr:street": "Straße der Einheit",
            "brand": "Selgros",
            "brand:wikidata": "Q473918",
            "brand:wikipedia": "de:Selgros",
            "building": "retail",
            "name": "Selgros",
            "opening_hours": "Mo-Fr 06:00-22:00; Sa 06:00-20:00; PH off",
            "phone": "+49 3322 2570",
            "shop": "wholesale",
            "short_name": "SELGROS",
            "website": "https://www.selgros.de/markt/falkensee",
            "wholesale": "general"
        },
        "name": null
    },
    {
        "tags": {
            "addr:city": "Berlin",
            "addr:country": "DE",
            "addr:housenumber": "135",
            "addr:postcode": "13599",
            "addr:street": "Nonnendammallee",
            "addr:suburb": "Haselhorst",
            "branch": "Berlin Berolina",
            "brand": "METRO",
            "brand:wikidata": "Q13610282",
            "brand:wikipedia": "en:Metro Cash & Carry",
            "building": "retail",
            "building:levels": "2",
            "check_date:opening_hours": "2025-04-07",
            "email": "kontakt@metro.de",
            "internet_access": "wlan",
            "name": "METRO",
            "opening_hours": "Mo-Fr 07:00-22:00; Sa 07:00-20:00",
            "operator": "Metro Cash & Carry Deutschland GmbH Berlin-Berolina",
            "phone": "+49 30 354820",
            "shop": "wholesale",
            "website": "https://www.metro.de/standorte/berlin-berolina",
            "wheelchair": "yes"
        },
        "name": null
    },
    {
        "tags": {
            "addr:city": "Stahnsdorf",
            "addr:country": "DE",
            "addr:housenumber": "76",
            "addr:postcode": "14532",
            "addr:street": "Ruhlsdorfer Straße",
            "branch": "Großhandel",
            "brand": "Selgros",
            "brand:wikidata": "Q473918",
            "brand:wikipedia": "de:Selgros",
            "building": "supermarket",
            "contact:fax": "+49 3329 647199",
            "contact:phone": "+49 3329 6470",
            "drink:club-mate": "yes",
            "name": "Selgros",
            "opening_hours": "Mo-Fr 06:00-22:00; Sa 06:00-20:00",
            "shop": "wholesale",
            "short_name": "SELGROS",
            "website": "https://www.selgros.de/markt/stahnsdorf",
            "wholesale": "food"
        },
        "name": null
    },
    {
        "tags": {
            "addr:city": "Berlin",
            "addr:country": "DE",
            "addr:housenumber": "25-35",
            "addr:postcode": "12277",
            "addr:street": "Buckower Chaussee",
            "addr:suburb": "Marienfelde",
            "branch": "Berlin Marienfelde",
            "brand": "METRO",
            "brand:wikidata": "Q13610282",
            "brand:wikipedia": "en:Metro Cash & Carry",
            "building": "yes",
            "name": "METRO",
            "opening_hours": "Mo-Fr 07:00-22:00; Sa 07:00-20:00",
            "phone": "+49 30 762800",
            "shop": "wholesale",
            "website": "https://www.metro.de/standorte/berlin-marienfelde",
            "wheelchair": "yes",
            "wholesale": "general"
        },
        "name": null
    },
    {
        "tags": {
            "addr:city": "Schönefeld",
            "addr:housenumber": "5",
            "addr:postcode": "12529",
            "addr:street": "Grünauer Straße",
            "branch": "Schönefeld",
            "brand": "METRO",
            "brand:wikidata": "Q13610282",
            "brand:wikipedia": "en:Metro Cash & Carry",
            "building": "warehouse",
            "name": "METRO",
            "opening_hours": "Mo-Fr 07:00-22:00; Sa 07:00-20:00",
            "phone": "+49 30 6331490",
            "shop": "wholesale",
            "website": "https://www.metro24.de/pages/DE/Standorte/099_METROSchoenefeld",
            "wheelchair": "yes"
        },
        "name": null
    },
    {
        "tags": {
            "addr:city": "Berlin",
            "addr:housenumber": "141",
            "addr:street": "Rhinstraße",
            "addr:suburb": "Lichtenberg",
            "brand": "Selgros",
            "brand:wikidata": "Q473918",
            "brand:wikipedia": "de:Selgros",
            "building": "retail",
            "building:levels": "1",
            "check_date": "2024-12-19",
            "check_date:opening_hours": "2024-12-19",
            "name": "Selgros",
            "opening_hours": "Mo-Fr 06:00-21:00; Sa 06:00-20:00",
            "payment:mastercard": "yes",
            "payment:visa": "yes",
            "phone": "+49 30 547810",
            "roof:shape": "flat",
            "shop": "wholesale",
            "short_name": "SELGROS",
            "website": "https://www.selgros.de/markt/berlin",
            "wheelchair": "yes",
            "wholesale": "department_store"
        },
        "name": null
    },
    {
        "tags": {
            "addr:city": "Großbeeren",
            "addr:country": "DE",
            "addr:housenumber": "1",
            "addr:postcode": "14979",
            "addr:street": "Zum Kiesberg",
            "building": "warehouse",
            "name": "Chefs Culinar",
            "office": "company"
        },
        "name": null
    }
]