[
    {
        "tags": {
            "addr:city": "Berlin",
            "addr:country": "DE",
            "addr:housenumber": "28/30",
            "addr:postcode": "13405",
            "addr:street": "Nordlichtstraße",
            "addr:suburb": "Reinickendorf",
            "building": "yes",
            "building:levels": "1",
            "craft": "joiner",
            "email": "Email@Tischlerei-KuV.de",
            "fax": "+49 304040947",
            "name": "Tischlerei K & V",
            "phone": "+49 304040946",
            "website": "https://www.tischlerei-kuv.de/"
        },
        "name": null
    },
    {
        "tags": {
            "building": "commercial",
            "building:levels": "1",
            "craft": "carpenter",
            "name": "Tischlerei Hätscher",
            "website": "https://hmi-tischlerei.de/"
        },
        "name": null
    },
    {
        "tags": {
            "addr:city": "Berlin",
            "addr:housenumber": "17",
            "addr:postcode": "13467",
            "addr:street": "Hohefeldstraße",
            "building": "industrial",
            "craft": "carpenter",
            "name": "Tischlerei Gegusch & Sohn",
            "opening_hours:signed": "no"
        },
        "name": null
    },
    {
        "tags": {
            "addr:city": "Ahrensfelde",
            "addr:country": "DE",
            "addr:housenumber": "5",
            "addr:postcode": "16356",
            "addr:street": "Möbel-Hübner-Straße",
            "addr:suburb": "Blumberg",
            "craft": "builder",
            "name": "Karin Reinwald Holzbautenvertrieb",
            "phone": "+49 33394 70757"
        },
        "name": null
    },
    {
        "tags": {
            "addr:city": "Wandlitz",
            "addr:housenumber": "10",
            "addr:postcode": "16348",
            "addr:street": "Steinweg",
            "building": "yes",
            "craft": "carpenter",
            "email": "MF.Tischlerei@t-online.de",
            "fax": "+49 33397 22004",
            "name": "Möbel- u. Bautischlerei Friedrich GmbH",
            "phone": "+49 33397 21433",
            "website": "https://www.tischlereifriedrich.de/"
        },
        "name": null
    },
    {
        "tags": {
            "addr:city": "Wandlitz",
            "addr:housenumber": "6",
            "addr:postcode": "16348",
            "addr:street": "Ziegelweg",
            "building": "yes",
            "craft": "carpenter",
            "name": "Tischlerei B. Rieger",
            "phone": "+49 33397 72906"
        },
        "name": null
    },
    {
        "tags": {
            "addr:city": "Wustermark",
            "addr:country": "DE",
            "addr:housenumber": "1E",
            "addr:postcode": "14641",
            "addr:street": "Chaussee",
            "addr:suburb": "Priort",
            "building": "yes",
            "craft": "carpenter",
            "name": "Zimmerei Schramm"
        },
        "name": null
    },
    {
        "tags": {
            "addr:city": "Hohen Neuendorf",
            "addr:country": "DE",
            "addr:housenumber": "17",
            "addr:postcode": "16562",
            "addr:street": "Parkstraße",
            "building": "yes",
            "craft": "joiner",
            "email": "mail@woschinik.de",
            "fax": "+49 3303 50960 6",
            "name": "Tischlerei Woschinik",
            "operator": "Helmut Woschinik & Sohn GbR Bau- und Möbeltischlerei",
            "phone": "+49 3303 50960 5",
            "website": "http://www.woschinik.de/"
        },
        "name": null
    },
    {
        "tags": {
            "addr:city": "Berlin",
            "addr:country": "DE",
            "addr:housenumber": "20",
            "addr:postcode": "10317",
            "addr:street": "Köpenicker Chaussee",
            "addr:suburb": "Rummelsburg",
            "building": "commercial",
            "building:levels": "2",
            "check_date": "2025-05-09",
            "contact:phone": "+49 30 61285151",
            "contact:website": "http://www.moebeltischlerei-masswerk.de/",
            "craft": "carpenter",
            "name": "Tischlerei Maßwerk",
            "operator": "Maßwerk e.K.",
            "roof:shape": "flat"
        },
        "name": null
    },
    {
        "tags": {
            "addr:city": "Panketal",
            "addr:housenumber": "39",
            "addr:postcode": "16341",
            "addr:street": "Bucher Straße",
            "addr:suburb": "Zepernick",
            "building": "yes",
            "craft": "carpenter",
            "name": "Tischlerei Peter Hanert",
            "phone": "+49 30 9444019",
            "website": "https://www.tischlerei-hanert.de/"
        },
        "name": null
    },
    {
        "tags": {
            "building": "yes",
            "craft": "carpenter",
            "name": "Tischlerei Klabunde"
        },
        "name": null
    },
    {
        "tags": {
            "addr:city": "Nuthetal",
            "addr:country": "DE",
            "addr:housenumber": "15",
            "addr:postcode": "14558",
            "addr:street": "Schumannstraße",
            "building": "residential",
            "craft": "joiner",
            "name": "Tischlerei Könitzer",
            "website": "https://www.tischlerei-koenitzer.de"
        },
        "name": null
    },
    {
        "tags": {
            "addr:housenumber": "77",
            "addr:postcode": "12681",
            "addr:street": "Hatzenporter Weg",
            "building": "commercial",
            "building:levels": "1",
            "craft": "carpenter",
            "landuse": "commercial",
            "name": "Tischlerei Hoffmann GmbH",
            "opening_hours:signed": "no",
            "roof:levels": "1",
            "roof:shape": "gabled"
        },
        "name": null
    },
    {
        "tags": {
            "addr:city": "Berlin",
            "addr:country": "DE",
            "addr:housenumber": "16",
            "addr:postcode": "12559",
            "addr:street": "Müggellandstraße",
            "addr:suburb": "Müggelheim",
            "building": "commercial",
            "craft": "joiner",
            "name": "Tischlerei Gert Zyniewicz",
            "source": "Geoportal Berlin / Hauskoordinaten",
            "website": "http://www.tischlerei-gz.de"
        },
        "name": null
    },
    {
        "tags": {
            "addr:city": "Woltersdorf",
            "addr:country": "DE",
            "addr:housenumber": "22",
            "addr:postcode": "15569",
            "addr:street": "Baumschulenstraße",
            "building": "yes",
            "craft": "carpenter",
            "name": "Tischlerei Perschke",
            "phone": "+49 3362 504467"
        },
        "name": null
    },
    {
        "tags": {
            "addr:city": "Bernau bei Berlin",
            "addr:country": "DE",
            "addr:housenumber": "5",
            "addr:postcode": "16321",
            "addr:street": "Rudolf-Diesel-Straße",
            "building": "yes",
            "contact:email": "kontakt@duh-dachbau.de",
            "contact:mobile": "+49 172 2413808",
            "contact:phone": "+49 3338 764719",
            "contact:website": "http://www.duh-dachbau.de/",
            "craft": "carpenter",
            "name": "D & H Hozbau & Zimmerei",
            "opening_hours": "Mo-Fr 09:00-13:00",
            "operator": "D&H Holzbau GmbH"
        },
        "name": null
    },
    {
        "tags": {
            "addr:city": "Spreenhagen",
            "addr:country": "DE",
            "addr:housenumber": "11B",
            "addr:postcode": "15528",
            "addr:street": "Schulstraße",
            "addr:suburb": "Hartmannsdorf",
            "building": "yes",
            "craft": "joiner",
            "name": "Tischlerei Kleinert"
        },
        "name": null
    },
    {
        "tags": {
            "building": "yes",
            "craft": "carpenter",
            "name": "Tischlerei Schade",
            "website": "https://www.kindermoebel-schade.de/"
        },
        "name": null
    },
    {
        "tags": {
            "addr:city": "Potsdam",
            "addr:country": "DE",
            "addr:housenumber": "74b",
            "addr:postcode": "14482",
            "addr:street": "Bruno-H.-Bürgel-Straße",
            "addr:suburb": "Babelsberg Nord",
            "contact:email": "firma@tischlerei-praetsch.de",
            "contact:fax": "+49 331 740 0355",
            "contact:phone": "+49 331 705 832",
            "contact:website": "http://www.tischlerei-praetsch.de/",
            "craft": "joiner",
            "landuse": "commercial",
            "name": "Tischlerei Frank Praetsch",
            "operator": "Frank Praetsch",
            "operator:type": "private",
            "ref:vatin": "DE254310186"
        },
        "name": null
    }
]