[
    {
        "tags": {
            "craft": "painter",
            "name": "Malereibetrieb Gerlach",
            "operator": "Malereibetrieb Gerlach GhR",
            "phone": "+49 30 6723672"
        },
        "name": null
    },
    {
        "tags": {
            "contact:email": "malerei-werner@gmx.de",
            "contact:fax": "+49 30 66548835",
            "contact:mobile": "+49 173 6104479",
            "contact:phone": "+49 30 66548835",
            "contact:website": "http://malereiwerner.de/",
            "craft": "painter",
            "name": "Malerei Werner",
            "operator": "Mirko Werner"
        },
        "name": null
    },
    {
        "tags": {
            "addr:city": "Berlin",
            "addr:country": "DE",
            "addr:housenumber": "102",
            "addr:postcode": "12527",
            "addr:street": "Regattastraße",
            "contact:email": "kontakt@malerfreunde-berlin.de",
            "contact:fax": "+49 30 89648904",
            "contact:phone": "+49 30 89657884",
            "craft": "painter",
            "name": "Malerfreunde Berlin",
            "opening_hours": "Mo-Fr 07:00-15:00; Sa 09:00-14:00",
            "operator": "Jens Armenat",
            "phone": "+49 30 89657884",
            "website": "https://www.malerfreunde-berlin.de/"
        },
        "name": null
    },
    {
        "tags": {
            "addr:city": "Potsdam",
            "addr:country": "DE",
            "addr:housenumber": "5",
            "addr:postcode": "14478",
            "addr:street": "Verkehrshof",
            "craft": "painter",
            "name": "Malereibetrieb Gerd Schwarzlose",
            "phone": "+49331888560",
            "website": "https://www.malereibetrieb-schwarzlose.com/"
        },
        "name": null
    },
    {
        "tags": {
            "craft": "painter",
            "name": "Die Maler - Marotzke"
        },
        "name": null
    },
    {
        "tags": {
            "addr:city": "Berlin",
            "addr:country": "DE",
            "addr:housenumber": "36",
            "addr:postcode": "13587",
            "addr:street": "Streitstraße",
            "addr:suburb": "Hakenfelde",
            "check_date": "2023-10-01",
            "craft": "painter",
            "name": "Malermeister Melde",
            "source": "Geoportal Berlin / Hauskoordinaten"
        },
        "name": null
    },
    {
        "tags": {
            "addr:city": "Hohen Neuendorf",
            "addr:country": "DE",
            "addr:housenumber": "44",
            "addr:postcode": "16562",
            "addr:street": "Hochwaldallee",
            "addr:suburb": "Bergfelde",
            "craft": "tiler",
            "description": "Professionelle und zuverlässige Fliesenverlegung für Ihr Zuhause. Für ein neues Wohngefühl finden wir das passende Design, verlegen hochwertige Fliesen und es entstehen Ergebnisse, die Ihre Erwartungen übertreffen.",
            "name": "MyTiler - Mein Fliesenleger",
            "opening_hours": "Mo-Fr 09:00-15:00",
            "operator": "MyTiler GmbH",
            "phone": "+4933032979111",
            "website": "https://mytiler.de/"
        },
        "name": null
    },
    {
        "tags": {
            "craft": "car_painter",
            "email": "salewski-lack@t-online.de",
            "fax": "+49 30 72325472",
            "name": "Salewski Lackiererei GmbH",
            "operator": "Ralf Salewski & Timo Salewski",
            "phone": "+49 30 72325470",
            "shop": "car_repair",
            "website": "https://www.lackiererei-salewski.de/",
            "wheelchair": "no"
        },
        "name": null
    },
    {
        "tags": {
            "craft": "tiler",
            "email": "us@fliese1.de",
            "fax": "+49 30 412 04433",
            "name": "Fliesenlegermeister Uwe Schröter",
            "phone": "+49 30 412 8558",
            "website": "https://www.fliese1.de/"
        },
        "name": null
    },
    {
        "tags": {
            "addr:city": "Berlin",
            "addr:housenumber": "11F",
            "addr:postcode": "13355",
            "addr:street": "Brunnenstraße",
            "craft": "painter",
            "email": "stefanpaulickgmbh@arcor.de",
            "name": "Malermeister Stefan Paulick",
            "phone": "+4930 4631027"
        },
        "name": null
    },
    {
        "tags": {
            "check_date": "2023-09-01",
            "craft": "painter",
            "name": "Malereibetrieb Palette"
        },
        "name": null
    },
    {
        "tags": {
            "check_date": "2023-05-11",
            "contact:fax": "+49 30 5224949",
            "contact:phone": "+49 30 5262191",
            "craft": "painter",
            "description": "auch carpet_layer, Bodenbelagsarbeiten",
            "name": "Malerbetrieb Knut Mittasch",
            "operator": "Knut Mittasch"
        },
        "name": null
    },
    {
        "tags": {
            "addr:city": "Potsdam",
            "addr:country": "DE",
            "addr:housenumber": "13",
            "addr:postcode": "14480",
            "addr:street": "Sternstraße",
            "addr:suburb": "Drewitz",
            "contact:email": "info@maler-gerlach.de",
            "contact:website": "http://maler-gerlach.de/",
            "craft": "painter",
            "name": "Maler-Gerlach",
            "operator": "Torsten Gerlach",
            "operator:type": "private"
        },
        "name": null
    },
    {
        "tags": {
            "craft": "painter",
            "name": "Malerbetrieb Galesky"
        },
        "name": null
    },
    {
        "tags": {
            "addr:city": "Berlin",
            "addr:country": "DE",
            "addr:housenumber": "8",
            "addr:postcode": "10715",
            "addr:street": "Mainzer Straße",
            "addr:suburb": "Wilmersdorf",
            "check_date": "2025-01-19",
            "craft": "painter",
            "cuisine": "nepalese",
            "name": "MalerMeister",
            "operator": "André A. Descloux",
            "website": "http://www.descloux.de/"
        },
        "name": null
    },
    {
        "tags": {
            "addr:city": "Berlin",
            "addr:country": "DE",
            "addr:housenumber": "54",
            "addr:postcode": "10713",
            "addr:street": "Blissestraße",
            "addr:suburb": "Wilmersdorf",
            "check_date": "2023-05-30",
            "contact:phone": "+49 30 8222047",
            "craft": "tiler",
            "name": "mewes Kamin- und Fliesenbau"
        },
        "name": null
    },
    {
        "tags": {
            "contact:phone": "+49 30 9445622",
            "craft": "painter",
            "name": "Maler-Fachbetrieb Ertenbach"
        },
        "name": null
    },
    {
        "tags": {
            "craft": "carpet_layer",
            "fax": "+49 30 9445955",
            "mobile": "+49 171 9727294",
            "name": "Fußbodenleger Krüger&Blasek",
            "opening_hours": "Mo-Fr 08:00-17:00; PH off",
            "phone": "+49 30 9444908",
            "website": "https://krueger-blasek-fussbodenleger.de/"
        },
        "name": null
    },
    {
        "tags": {
            "addr:city": "Panketal",
            "addr:housenumber": "14a",
            "addr:postcode": "16341",
            "addr:street": "Dorfstraße",
            "addr:suburb": "Schwanebeck",
            "craft": "painter",
            "name": "Malermeister Gertenbach"
        },
        "name": null
    },
    {
        "tags": {
            "addr:city": "Hohen Neuendorf",
            "addr:country": "DE",
            "addr:housenumber": "12",
            "addr:postcode": "16562",
            "addr:street": "Gewerbestraße",
            "craft": "painter",
            "email": "info@farbenfroh-leben.de",
            "fax": "+49 3303 5371 40",
            "name": "Malereibetrieb Roland Geißler",
            "phone": "+49 3303 5371 30",
            "website": "https://www.farbenfroh-leben.de/"
        },
        "name": null
    },
    {
        "tags": {
            "check_date:opening_hours": "2024-10-10",
            "craft": "carpenter",
            "email": "cilovic@gmx.de",
            "name": "DN Denis Trockenbau",
            "opening_hours:signed": "no",
            "phone": "+491737025292"
        },
        "name": null
    },
    {
        "tags": {
            "craft": "painter",
            "name": "Gensert Malereibetrieb"
        },
        "name": null
    },
    {
        "tags": {
            "addr:city": "Berlin",
            "addr:country": "DE",
            "addr:housenumber": "16",
            "addr:postcode": "12163",
            "addr:street": "Bornstraße",
            "addr:suburb": "Friedenau",
            "check_date": "2024-08-09",
            "craft": "builder",
            "name": "TE-MI Trockenbau"
        },
        "name": null
    },
    {
        "tags": {
            "craft": "painter",
            "name": "Malereibetrieb H. Rauber & A. Mahl",
            "website": "https://www.rauber-mahl.de/"
        },
        "name": null
    },
    {
        "tags": {
            "addr:city": "Berlin",
            "addr:country": "DE",
            "addr:housenumber": "3",
            "addr:postcode": "12683",
            "addr:street": "Oberfeldstraße",
            "addr:suburb": "Biesdorf",
            "contact:website": "https://www.farbe-mal-anders.de",
            "craft": "painter",
            "name": "Malermeister Lieckfeldt"
        },
        "name": null
    },
    {
        "tags": {
            "craft": "signmaker",
            "name": "A. Breslauer - Schildermalerei",
            "phone": "+493076904393",
            "website": "http://a-breslauer.de/"
        },
        "name": null
    },
    {
        "tags": {
            "contact:linkedin": "https://www.linkedin.com/in/frank-michael-132804134",
            "craft": "tiler",
            "email": "fliesen-michael@t-online.de",
            "fax": "+49 30 56555378",
            "fixme": "position estimated",
            "name": "Fliesen Michael",
            "operator": "Frank Michael",
            "operator:type": "private",
            "phone": "+49 30 56555379",
            "room:ref": "108"
        },
        "name": null
    },
    {
        "tags": {
            "addr:city": "Berlin",
            "addr:housenumber": "2",
            "addr:postcode": "12683",
            "addr:street": "Annenstraße",
            "check_date": "2025-03-14",
            "craft": "builder",
            "email": "info@fsb-spezialbau.de",
            "fax": "+49 30 54999729",
            "name": "FSB Spezial Bau und Fassaden GmbH",
            "operator": "Dipl. Bau-Ing. Lars Conrad, Rainer Trepke",
            "phone": "+49 30 5499970",
            "website": "https://www.fsb-spezialbau.de"
        },
        "name": null
    },
    {
        "tags": {
            "craft": "painter",
            "name": "Maler- und Lackiermeister GmbH René Mahr"
        },
        "name": null
    },
    {
        "tags": {
            "addr:city": "Berlin",
            "addr:country": "DE",
            "addr:housenumber": "15",
            "addr:postcode": "12621",
            "addr:street": "Wernitzer Straße",
            "addr:suburb": "Kaulsdorf",
            "craft": "tiler",
            "fax": "+49 30 56702863",
            "mobile": "+49 173 2177173",
            "name": "Fliesenleger Fachbetrieb Jens Gehrke",
            "operator": "Jens Gehrke",
            "phone": "+49 30 5677676",
            "source": "Geoportal Berlin / Hauskoordinaten"
        },
        "name": null
    },
    {
        "tags": {
            "craft": "painter",
            "name": "Jane Kaszuba\nMalermeisterin"
        },
        "name": null
    },
    {
        "tags": {
            "addr:city": "Berlin",
            "addr:country": "DE",
            "addr:housenumber": "9",
            "addr:postcode": "12249",
            "addr:street": "Zietenstraße",
            "addr:suburb": "Lankwitz",
            "craft": "painter",
            "name": "Thomas Honeycutt Malermeister e. K.",
            "website": "https://www.meister-honeycutt.de/"
        },
        "name": null
    },
    {
        "tags": {
            "access": "customers",
            "addr:city": "Potsdam",
            "addr:country": "DE",
            "addr:housenumber": "52",
            "addr:postcode": "14482",
            "addr:street": "Alt Nowawes",
            "addr:suburb": "Babelsberg Nord",
            "contact:phone": "+49 331 871 2871",
            "craft": "interior_work",
            "door": "hinged",
            "entrance": "main",
            "level": "0",
            "name": "René Gehentges Trockenbau",
            "operator": "René Gehentges",
            "operator:type": "private",
            "step_count": "3",
            "wheelchair": "no"
        },
        "name": null
    },
    {
        "tags": {
            "building": "yes",
            "contact:website": "http://www.malereibetrieb-solga.de/",
            "craft": "painter",
            "name": "Malerei Solga",
            "old_name": "Malerei Kling"
        },
        "name": null
    },
    {
        "tags": {
            "addr:city": "Bernau bei Berlin",
            "addr:country": "DE",
            "addr:housenumber": "6b",
            "addr:postcode": "16321",
            "addr:street": "Rudolf-Diesel-Straße",
            "building": "yes",
            "contact:email": "info@malerbetriebe-kind.de",
            "contact:fax": "+49 3338 756633",
            "contact:phone": "+49 3338 7530033",
            "contact:website": "http://www.malerbetriebe-kind.de/",
            "craft": "painter",
            "name": "Malerbetriebe Kind",
            "opening_hours": "Mo-Fr 07:00-17:00",
            "operator": "Malerbetrieb Kind GmbH"
        },
        "name": null
    }
]