[
  {
    "tags": {
      "addr:city": "Berlin",
      "addr:country": "DE",
      "addr:housenumber": "5A",
      "addr:postcode": "13353",
      "addr:street": "Willdenowstra√üe",
      "addr:suburb": "Wedding",
      "name": "Tillmann Umz√ºge",
      "office": "moving_company"
    },
    "name": null
  },
  {
    "tags": {
      "addr:city": "Berlin",
      "addr:country": "DE",
      "addr:housenumber": "24",
      "addr:postcode": "10559",
      "addr:street": "Stephanstra√üe",
      "addr:suburb": "Moabit",
      "name": "Komet Umz√ºge",
      "office": "moving_company"
    },
    "name": null
  },
  {
    "tags": {
      "addr:city": "Berlin",
      "addr:country": "DE",
      "addr:housenumber": "175",
      "addr:postcode": "13509",
      "addr:street": "Holzhauser Stra√üe",
      "addr:suburb": "Borsigwalde",
      "name": "Bilfinger Construction GmbH",
      "office": "company"
    },
    "name": null
  },
  {
    "tags": {
      "addr:city": "Berlin",
      "addr:country": "DE",
      "addr:housenumber": "8",
      "addr:postcode": "13347",
      "addr:street": "Turiner Stra√üe",
      "addr:suburb": "Wedding",
      "check_date": "2023-04-08",
      "name": "Perfekt Umz√ºge",
      "office": "moving_company"
    },
    "name": null
  },
  {
    "tags": {
      "check_date": "2024-05-16",
      "name": "Compact Umz√ºge",
      "office": "moving_company"
    },
    "name": null
  },
  {
    "tags": {
      "access": "customers",
      "addr:city": "Berlin",
      "addr:country": "DE",
      "addr:housenumber": "6",
      "addr:postcode": "13599",
      "addr:street": "Goldbeckweg",
      "addr:suburb": "Haselhorst",
      "leisure": "playground",
      "name": "Spielhaus Goldbeckweg",
      "source": "Geoportal Berlin / Hauskoordinaten"
    },
    "name": null
  },
  {
    "tags": {
      "addr:city": "Berlin",
      "addr:country": "DE",
      "addr:housenumber": "2A",
      "addr:postcode": "13158",
      "addr:street": "Stra√üe vor Sch√∂nholz",
      "addr:suburb": "Niedersch√∂nhausen",
      "name": "Wichtel Umz√ºge GmbH",
      "office": "company",
      "opening_hours": "Mo-Fr 08:00-20:00",
      "phone": "+493075561575",
      "source": "Geoportal Berlin / Hauskoordinaten",
      "website": "https://www.wichtel-umzuege.de/"
    },
    "name": null
  },
  {
    "tags": {
      "addr:city": "Berlin",
      "addr:housenumber": "131",
      "addr:postcode": "13409",
      "addr:street": "Residenzstra√üe",
      "check_date": "2023-12-14",
      "contact:phone": "+49 30 49876041",
      "contact:website": "http://www.falken-umzuege.de/",
      "name": "Falken Umz√ºge",
      "office": "moving_company",
      "wheelchair": "limited"
    },
    "name": null
  },
  {
    "tags": {
      "email": "info@atlanten-umzug.de",
      "fax": "+49 30 49910042",
      "name": "Atlanten Umz√ºge",
      "office": "moving_company",
      "phone": "+49 30 49910041",
      "website": "https://www.atlanten-umzug.de/"
    },
    "name": null
  },
  {
    "tags": {
      "addr:city": "Berlin",
      "addr:country": "DE",
      "addr:housenumber": "9",
      "addr:postcode": "12157",
      "addr:street": "Beckerstra√üe",
      "addr:suburb": "Sch√∂neberg",
      "level": "0",
      "name": "GPS Umz√ºge",
      "office": "moving_company",
      "opening_hours": "Mo-Fr 10:00-16:00",
      "phone": "+49 30 80107580",
      "website": "https://gps-umzug.de/",
      "wheelchair": "limited"
    },
    "name": null
  },
  {
    "tags": {
      "addr:city": "Berlin",
      "addr:country": "DE",
      "addr:housenumber": "5A",
      "addr:postcode": "13187",
      "addr:street": "Wollankstra√üe",
      "addr:suburb": "Pankow",
      "contact:website": "https://www.fachmann-umzuege.de/",
      "name": "Fachmann Umz√ºge",
      "office": "moving_company"
    },
    "name": null
  },
  {
    "tags": {
      "addr:city": "Berlin",
      "addr:country": "DE",
      "addr:housenumber": "18",
      "addr:postcode": "12621",
      "addr:street": "Alt-Kaulsdorf",
      "addr:suburb": "Kaulsdorf",
      "contact:phone": "+49 30 5569750",
      "contact:website": "http://www.roggan-transporte.de/",
      "lastcheck": "2016-11-19",
      "name": "Roggan Umz√ºge & Transporte",
      "office": "moving_company"
    },
    "name": null
  },
  {
    "tags": {
      "addr:city": "Berlin",
      "addr:housenumber": "103",
      "addr:postcode": "13409",
      "addr:street": "Provinzstra√üe",
      "name": "Wichtel Umz√ºge",
      "office": "moving_company"
    },
    "name": null
  },
  {
    "tags": {
      "addr:city": "Berlin",
      "addr:country": "DE",
      "addr:housenumber": "18",
      "addr:postcode": "13357",
      "addr:street": "Schwedenstra√üe",
      "addr:suburb": "Gesundbrunnen",
      "check_date": "2024-01-16",
      "contact:email": "info@eurobest-umzuege.de",
      "contact:phone": "+49 30 45084000",
      "contact:website": "https://www.eurobest-umzuege.de/",
      "name": "Eurobest Umz√ºge",
      "office": "moving_company",
      "opening_hours": "Mo-Fr 09:00-18:00",
      "wheelchair": "yes"
    },
    "name": null
  },
  {
    "tags": {
      "name": "Strabag PFS",
      "office": "company",
      "website": "https://www.strabag-pfs.de/"
    },
    "name": null
  },
  {
    "tags": {
      "addr:city": "Berlin",
      "addr:country": "DE",
      "addr:housenumber": "14A",
      "addr:postcode": "13158",
      "addr:street": "Str. vor Sch√∂nholz",
      "addr:suburb": "Reinickendorf",
      "check_date": "2025-07-14",
      "contact:email": "info@wichtel-umzuege.de",
      "contact:phone": "+49 30 75561575",
      "contact:website": "https://www.wichtel-umzuege.de/",
      "name": "Wichtel Umz√ºge GmbH",
      "office": "moving_company",
      "official_name": "Wichtel Umz√ºge GmbH",
      "opening_hours": "Mo-Fr 08:00-20:00",
      "ref:vatin": "DE340351152",
      "wheelchair": "yes"
    },
    "name": null
  },
  {
    "tags": {
      "contact:phone": "+49 30 78959481",
      "contact:website": "https://www.kaspar-umzuege.de/",
      "name": "Kaspar-Umz√ºge",
      "office": "moving_company"
    },
    "name": null
  },
  {
    "tags": {
      "artwork_type": "statue",
      "name": "Hochtief-Buddyb√§r",
      "tourism": "artwork"
    },
    "name": null
  },
  {
    "tags": {
      "addr:city": "Berlin",
      "addr:floor": "0",
      "addr:housenumber": "39",
      "addr:postcode": "13347",
      "addr:street": "Nazarethkirchstra√üe",
      "check_date": "2024-07-12",
      "level": "0",
      "mobile": "+4917677540660",
      "name": "Nassib Umz√ºge & Entr√ºmplung Berlin",
      "office": "moving_company",
      "phone": "+49 30 52138762",
      "wheelchair": "no"
    },
    "name": null
  },
  {
    "tags": {
      "check_date": "2023-04-06",
      "name": "Nazareth Umz√ºge",
      "office": "moving_company",
      "opening_hours": "Tu-We,Fr-Sa 12:00-17:00",
      "phone": "+49 30 83219910",
      "wheelchair": "no"
    },
    "name": null
  },
  {
    "tags": {
      "addr:housenumber": "11",
      "addr:street": "Pankstra√üe",
      "check_date": "2022-12-01",
      "email": "info@engelmann-umzug.de",
      "fax": "+49 30 8170479 2",
      "level": "0",
      "name": "Engelmann Umz√ºge",
      "office": "moving_company",
      "opening_hours": "Mo-Fr 10:00-16:00",
      "phone": "+49 30 8170479 1",
      "website": "https://www.engelmann-umzug.de/",
      "wheelchair": "no"
    },
    "name": null
  },
  {
    "tags": {
      "name": "zapf umz√ºge",
      "office": "moving_company"
    },
    "name": null
  },
  {
    "tags": {
      "addr:city": "Berlin",
      "addr:country": "DE",
      "addr:housenumber": "28-42",
      "addr:postcode": "13407",
      "addr:street": "Flottenstra√üe",
      "company": "logistics",
      "contact:email": "info@kraftumzug.de",
      "contact:fax": "+49 30 4113689",
      "contact:phone": "+49 30 4111496",
      "name": "Reiner Kraft Transportlogistik, Umz√ºge & Lagerung",
      "office": "moving_company"
    },
    "name": null
  },
  {
    "tags": {
      "addr:city": "Berlin",
      "addr:country": "DE",
      "addr:housenumber": "113",
      "addr:postcode": "13349",
      "addr:street": "M√ºllerstra√üe",
      "addr:suburb": "Wedding",
      "check_date": "2025-02-21",
      "check_date:opening_hours": "2021-07-20",
      "contact:phone": "+49 30 39839362",
      "level": "0",
      "name": "Axa Umz√ºge",
      "office": "moving_company",
      "opening_hours": "Mo-Fr 10:00-16:00; PH closed",
      "wheelchair": "no"
    },
    "name": null
  },
  {
    "tags": {
      "addr:city": "Berlin",
      "addr:country": "DE",
      "addr:housenumber": "25",
      "addr:postcode": "13357",
      "addr:street": "Exerzierstra√üe",
      "addr:suburb": "Gesundbrunnen",
      "check_date": "2023-07-13",
      "contact:email": "info@legende-umzuege.de",
      "contact:phone": "+49 30 50176670",
      "contact:website": "https://legende-umzuege-berlin.de/",
      "name": "Legende Umz√ºge",
      "office": "moving_company",
      "wheelchair": "no"
    },
    "name": null
  },
  {
    "tags": {
      "addr:city": "Berlin",
      "addr:country": "DE",
      "addr:housenumber": "105",
      "addr:postcode": "10827",
      "addr:street": "Hauptstra√üe",
      "addr:suburb": "Sch√∂neberg",
      "name": "Intertrans Umz√ºge",
      "office": "moving_company",
      "phone": "+49 30 62904 573",
      "website": "https://umzug-intertrans.de/"
    },
    "name": null
  },
  {
    "tags": {
      "addr:city": "Berlin",
      "addr:country": "DE",
      "addr:housenumber": "62",
      "addr:postcode": "13359",
      "addr:street": "Wollankstra√üe",
      "addr:suburb": "Gesundbrunnen",
      "check_date": "2023-07-02",
      "contact:email": "moon-umzuege@web.de",
      "contact:phone": "+49 30 60406230",
      "contact:website": "https://moon-umz√ºge.net/",
      "name": "Moon Umz√ºge",
      "office": "moving_company",
      "wheelchair": "yes"
    },
    "name": null
  },
  {
    "tags": {
      "name": "Niclas Umz√ºge",
      "office": "moving_company"
    },
    "name": null
  },
  {
    "tags": {
      "addr:city": "Berlin",
      "addr:housenumber": "122",
      "addr:postcode": "12527",
      "addr:street": "Regattastra√üe",
      "name": "Regatta-Umz√ºge",
      "office": "moving_company"
    },
    "name": null
  },
  {
    "tags": {
      "addr:city": "Berlin",
      "addr:housenumber": "83",
      "addr:postcode": "12627",
      "addr:street": "Quedlinburger Stra√üe",
      "email": "umzuege-aist@web.de",
      "mobile": "+49 160 7919022",
      "name": "Aist Umz√ºge",
      "office": "moving_company",
      "opening_hours": "Mo-Sa 08:00-20:00; PH off",
      "operator": "Rostem Ali",
      "phone": "+49 30 81479768",
      "website": "https://www.aist-umzuege.de/"
    },
    "name": null
  },
  {
    "tags": {
      "addr:city": "Berlin",
      "addr:country": "DE",
      "addr:housenumber": "29",
      "addr:postcode": "12163",
      "addr:street": "Zimmermannstra√üe",
      "addr:suburb": "Steglitz",
      "check_date:opening_hours": "2023-03-18",
      "name": "Steuerb√ºro W. Goldbecker",
      "office": "tax_advisor",
      "opening_hours:signed": "no"
    },
    "name": null
  },
  {
    "tags": {
      "contact:email": "info@amadeus-umzuege.de",
      "contact:phone": "+49 30 6811006",
      "contact:website": "https://www.amadeusumzuege.com/",
      "name": "Amadeus Umz√ºge",
      "office": "moving_company",
      "operator": "Amadeus Transportgesellschaft mbH"
    },
    "name": null
  },
  {
    "tags": {
      "name": "Mars Umz√ºge",
      "office": "moving_company"
    },
    "name": null
  },
  {
    "tags": {
      "name": "SAGA Umz√ºge",
      "office": "moving_company"
    },
    "name": null
  },
  {
    "tags": {
      "name": "Anton Umz√ºge",
      "office": "moving_company"
    },
    "name": null
  },
  {
    "tags": {
      "addr:city": "Berlin",
      "addr:country": "DE",
      "addr:housenumber": "7A",
      "addr:postcode": "13357",
      "addr:street": "Buttmannstra√üe",
      "addr:suburb": "Gesundbrunnen",
      "contact:email": "info@turm-umzuege.de",
      "contact:phone": "+49 30 8978 4543",
      "contact:website": "https://turm-umzuege.de",
      "name": "Turm Umz√ºge",
      "office": "moving_company"
    },
    "name": null
  },
  {
    "tags": {
      "addr:city": "Berlin",
      "addr:housenumber": "14",
      "addr:postcode": "13349",
      "addr:street": "Barfusstra√üe",
      "description": "Helden Umz√ºge Berlin ist eine kompetente und erfahrene Umzugsfirma in Berlin mit langj√§hriger Erfahrung. Mit Leistungen aus den Bereichen Entr√ºmpelung, Transport und Umzug √ºberzeugt die motivierte Umzugsfirma inklusive des Teams. Grunds√§tzlich sollte jede",
      "email": "info@helden-umzuege.berlin",
      "image": "https://www.helden-umzuege.berlin/wp-content/uploads/2020/03/helden-umzuege-logoelement-10rand.png",
      "name": "Helden Umz√ºge Berlin",
      "office": "moving_company",
      "opening_hours": "Mo-Su 09:00-21:00",
      "phone": "03092100340",
      "website": "https://www.helden-umzuege.berlin"
    },
    "name": null
  },
  {
    "tags": {
      "check_date": "2025-05-07",
      "name": "Almut Umz√ºge",
      "office": "moving_company"
    },
    "name": null
  },
  {
    "tags": {
      "email": "info@igel-umzuege.de",
      "name": "Igel Umz√ºge",
      "office": "moving_company",
      "phone": "+49 30 50182394",
      "website": "https://www.igel-umzuege.de"
    },
    "name": null
  },
  {
    "tags": {
      "name": "HOCHTIEF Projektentwicklung GmbH",
      "office": "company"
    },
    "name": null
  },
  {
    "tags": {
      "addr:housenumber": "14",
      "addr:street": "Turiner Stra√üe",
      "check_date": "2023-04-08",
      "level": "0",
      "name": "Rubin Umz√ºge",
      "office": "moving_company"
    },
    "name": null
  },
  {
    "tags": {
      "addr:city": "Berlin",
      "addr:housenumber": "25",
      "addr:postcode": "10439",
      "addr:street": "Schivelbeiner Stra√üe",
      "check_date": "2025-04-21",
      "level": "0",
      "name": "Schindler Umz√ºge",
      "office": "moving_company",
      "official_name": "Schindler Umz√ºge - Umzugsunternehmen Berlin - Umzug Berlin",
      "opening_hours": "Mo-Fr 09:00-18:00",
      "phone": "+49 30 47904222",
      "website": "https://schindler-umzuege.de",
      "wheelchair": "no"
    },
    "name": null
  },
  {
    "tags": {
      "name": "Idol Umz√ºge",
      "office": "moving_company"
    },
    "name": null
  },
  {
    "tags": {
      "name": "Tornado Umz√ºge",
      "office": "moving_company"
    },
    "name": null
  },
  {
    "tags": {
      "name": "Wind Umz√ºge",
      "office": "moving_company"
    },
    "name": null
  },
  {
    "tags": {
      "name": "Avatar Umz√ºge",
      "office": "moving_company",
      "phone": "+49 30 36414342",
      "website": "https://avatar-umzuege.de",
      "wheelchair": "yes"
    },
    "name": null
  },
  {
    "tags": {
      "name": "Fahnert Umz√ºge",
      "office": "moving_company"
    },
    "name": null
  },
  {
    "tags": {
      "name": "Ados Umz√ºge",
      "office": "moving_company"
    },
    "name": null
  },
  {
    "tags": {
      "name": "Heimgold Umz√ºge",
      "office": "moving_company"
    },
    "name": null
  },
  {
    "tags": {
      "addr:housenumber": "54",
      "addr:street": "Behaimstra√üe",
      "check_date": "2025-04-18",
      "name": "zentrum Umz√ºge",
      "office": "moving_company",
      "opening_hours": "Mo-Fr 08:00-20:00; Sa 08:00-18:00; Su 12:00-16:00"
    },
    "name": null
  },
  {
    "tags": {
      "addr:city": "Berlin",
      "addr:housenumber": "31",
      "addr:postcode": "13088",
      "addr:street": "Meyerbeerstra√üe",
      "email": "info@mm-umzuege.de",
      "mobile": "+49-178-180 6210",
      "name": "MM Umz√ºge",
      "office": "moving_company",
      "opening_hours": "signed=no",
      "ref:vatin": "DE241196436",
      "website": "http://www.mm-umzuege.de/"
    },
    "name": null
  },
  {
    "tags": {
      "cycleway:both": "no",
      "highway": "residential",
      "lane_markings": "no",
      "lit": "yes",
      "maxspeed": "30",
      "maxspeed:type": "DE:zone30",
      "name": "Goldbeckweg",
      "name:etymology:wikidata": "Q104541937",
      "postal_code": "13599",
      "sidewalk": "both",
      "smoothness": "good",
      "surface": "asphalt",
      "zone:maxspeed": "DE:30"
    },
    "name": null
  },
  {
    "tags": {
      "addr:city": "Oberkr√§mer",
      "addr:country": "DE",
      "addr:housenumber": "3",
      "addr:postcode": "16727",
      "addr:street": "Am Gartenweg",
      "addr:suburb": "B√§renklau",
      "building": "house",
      "email": "info@kristall-umzuege.de",
      "fax": "+49 3304 5217222",
      "name": "Kristall Umz√ºge",
      "office": "moving_company",
      "phone": "+49 3304 5217222",
      "website": "https://www.kristall-umzuege.de/"
    },
    "name": null
  },
  {
    "tags": {
      "addr:city": "Berlin",
      "addr:country": "DE",
      "addr:housenumber": "42B",
      "addr:postcode": "12103",
      "addr:street": "Bessemerstra√üe",
      "addr:suburb": "Sch√∂neberg",
      "building": "office",
      "name": "Strabag Real Estate Berlin",
      "office": "company",
      "operator": "Strabag Real Estate GmbH"
    },
    "name": null
  },
  {
    "tags": {
      "addr:city": "Berlin",
      "addr:housenumber": "65",
      "addr:postcode": "13156",
      "addr:street": "Buchholzer Stra√üe",
      "building": "yes",
      "description": "L√∂sche Umz√ºge - Umzug & Lagerung in Berlin\nüìç Buchholzer Str. 65, 13156 Berlin\nüìû 030 49004823 | ‚úâÔ∏è info@loesche-umzuege.de\nüåê loesche-umzuege.de\nüïí Mo-So, 8-10 Uhr\nZuverl√§ssige Umzugsdienste und Lagerung",
      "image": "https://lh5.googleusercontent.com/p/AF1QipMnVT_oZAMommPSjJ9jZ29geylV1023r9qNVHiT=w141-h236-n-k-no-nu",
      "name": "L√∂sche Umz√ºge",
      "website": "https://loesche-umzuege.de/"
    },
    "name": null
  },
  {
    "tags": {
      "addr:city": "Berlin",
      "addr:country": "DE",
      "addr:housenumber": "15",
      "addr:postcode": "12247",
      "addr:street": "Nicolaistra√üe",
      "addr:suburb": "Lankwitz",
      "building": "yes",
      "building:levels": "2",
      "name": "M√∂beltransporte Umz√ºge Nitsche",
      "office": "association",
      "roof:levels": "1",
      "roof:shape": "gabled"
    },
    "name": null
  },
  {
    "tags": {
      "addr:city": "Neuenhagen bei Berlin",
      "addr:country": "DE",
      "addr:housenumber": "2;4;6",
      "addr:postcode": "15366",
      "addr:street": "Zum Erlenbruch",
      "building": "yes",
      "name": "STRABAG"
    },
    "name": null
  },
  {
    "tags": {
      "addr:city": "Berlin",
      "addr:country": "DE",
      "addr:housenumber": "66",
      "addr:postcode": "12057",
      "addr:street": "Nobelstra√üe",
      "addr:suburb": "Neuk√∂lln",
      "landuse": "commercial",
      "name": "zapf Umz√ºge",
      "office": "moving_company",
      "source": "Geoportal Berlin / Hauskoordinaten",
      "website": "https://www.zapf.de/ueber-uns/zapf-haeuser/2-berlin"
    },
    "name": null
  },
  {
    "tags": {
      "landuse": "commercial",
      "name": "Borkowski Umz√ºge"
    },
    "name": null
  },
  {
    "tags": {
      "addr:city": "Berlin",
      "addr:country": "DE",
      "addr:housenumber": "14",
      "addr:postcode": "10997",
      "addr:street": "K√∂penicker Stra√üe",
      "addr:suburb": "Kreuzberg",
      "contact:phone": "+49 30 61061",
      "contact:website": "https://www.zapf.de/",
      "landuse": "commercial",
      "name": "Ehemalige Zapf Umz√ºge",
      "office": "moving_company"
    },
    "name": null
  },
  {
    "tags": {
      "addr:city": "Stahnsdorf",
      "addr:country": "DE",
      "addr:housenumber": "20",
      "addr:postcode": "14532",
      "addr:street": "Kieler Stra√üe",
      "building": "warehouse",
      "name": "Borkowski Umz√ºge",
      "office": "company"
    },
    "name": null
  },
  {
    "tags": {
      "contact:email": "info@thater-umzuege.de",
      "contact:phone": "+49 30 6849311",
      "landuse": "commercial",
      "name": "Thater Umz√ºge",
      "office": "moving_company"
    },
    "name": null
  },
  {
    "tags": {
      "addr:city": "Berlin",
      "addr:country": "DE",
      "addr:housenumber": "42B",
      "addr:postcode": "12103",
      "addr:street": "Bessemerstra√üe",
      "addr:suburb": "Sch√∂neberg",
      "building": "office",
      "name": "Strabag AG Nord-Ost",
      "office": "company",
      "operator": "Strabag AG, Direktion Nord-Ost",
      "type": "multipolygon"
    },
    "name": null
  }
]
