[
    {
        "tags": {
            "man_made": "pier",
            "mooring": "cruise",
            "wheelchair": "no"
        },
        "name": null
    },
    {
        "tags": {
            "man_made": "pier",
            "name": "Schiffsanleger"
        },
        "name": null
    },
    {
        "tags": {
            "charge": "15 EUR/1 night",
            "fee": "yes",
            "fixme": "specify credit cards: payment:<*>=yes instead of ~:credit_cards=yes",
            "leisure": "marina",
            "name": "Privatanleger Waldhotel am See Berlin-Schmöckwitz",
            "operator": "Waldhotel Schmöckwitz GmbH",
            "payment:cash": "yes",
            "payment:credit_cards": "yes",
            "power_supply": "no",
            "sanitary_dump_station": "no",
            "seamark:harbour:category": "marina",
            "seamark:type": "harbour"
        },
        "name": null
    },
    {
        "tags": {
            "addr:city": "Berlin",
            "addr:housenumber": "26c",
            "addr:postcode": "12527",
            "addr:street": "Wernsdorfer Straße",
            "addr:suburb": "Schmöckwitz",
            "description": "Marina, Bootsservice - Reparatur, Slipstelle",
            "ft_link": "www.freietonne.de?edit=74",
            "leisure": "marina",
            "name": "Besmer Bootswerft",
            "phone": "+49 30 6758032",
            "seamark:harbour:category": "marina",
            "seamark:name": "Besmer Bootswerft",
            "seamark:type": "harbour",
            "waterway": "boatyard",
            "website": "http://www.besmer-boote.de"
        },
        "name": null
    },
    {
        "tags": {
            "description": "Segelverein",
            "leisure": "marina",
            "name": "Eisenbahn-Sportverein Schmöckwitz",
            "seamark:harbour:category": "marina",
            "seamark:type": "harbour",
            "website": "https://www.rudern-schmoeckwitz.de/"
        },
        "name": null
    },
    {
        "tags": {
            "leisure": "marina",
            "name": "Bootshaus Krampenblick",
            "seamark:harbour:category": "marina",
            "seamark:type": "harbour",
            "website": "http://www.bootshaus-krampenblick.com/"
        },
        "name": null
    },
    {
        "tags": {
            "access": "private",
            "leisure": "marina",
            "operator": "Pro Sport Berlin 24 e.V.",
            "seamark:harbour:category": "marina",
            "seamark:name": "Pro Sport Berlin 24",
            "seamark:type": "harbour"
        },
        "name": null
    },
    {
        "tags": {
            "leisure": "marina",
            "name": "Segel-Club Seddin",
            "phone": "+49 30 6758254",
            "seamark:harbour:category": "marina",
            "seamark:name": "Segel-Club Seddin",
            "seamark:type": "harbour",
            "website": "https://www.sc-seddin.de/"
        },
        "name": null
    },
    {
        "tags": {
            "description": "Wernsdorf",
            "leisure": "marina",
            "name": "Bootshaus W-D-Junge",
            "phone": "+49 3362 820251",
            "seamark:harbour:category": "marina",
            "seamark:name": "Bootshaus W-D-Junge",
            "seamark:type": "harbour"
        },
        "name": null
    },
    {
        "tags": {
            "description": "Segeln mit Kreuz As",
            "ft_link": "www.freietonne.de?edit=103",
            "leisure": "marina",
            "name": "Wassersport-Verein 1921",
            "phone": "+49 30 6758530",
            "seamark:harbour:category": "marina",
            "seamark:name": "Wassersport-Verein 1921",
            "seamark:type": "harbour",
            "website": "https://www.wsv1921.de/"
        },
        "name": null
    },
    {
        "tags": {
            "description": "FT 24-MAI-08 16:39:06",
            "leisure": "marina",
            "name": "Ziegenhals",
            "seamark:harbour:category": "marina",
            "seamark:type": "harbour"
        },
        "name": null
    },
    {
        "tags": {
            "email": "hafen@mrc-berlin.com",
            "fee": "yes",
            "height": "26.802246",
            "leisure": "marina",
            "name": "MRC Berlin",
            "operator": "Motor-Rennboot-Club Berlin e.V. im ADAC (MRC)",
            "phone": "+49 30 76802916",
            "power_supply": "yes",
            "seamark:harbour:category": "marina",
            "seamark:name": "MRC BERLIN",
            "seamark:type": "harbour",
            "website": "https://www.mrc-berlin.com/"
        },
        "name": null
    },
    {
        "tags": {
            "description": "Kein offizieller Liegeplatz Anlegen & Festmachen zum Einkaufen möglich",
            "leisure": "marina",
            "seamark:harbour:category": "marina_no_facilities",
            "seamark:type": "mooring",
            "waterway:sign": "parking"
        },
        "name": null
    },
    {
        "tags": {
            "description": "Diesel Tankstelle 09-AUG-08 14:30:48",
            "draft": "1.5",
            "drinking_water": "yes",
            "email": "havelbaude@t-online.de",
            "height": "23.197388",
            "leisure": "marina",
            "name": "Marina Havelbaude",
            "phone": "+49 3303 500239",
            "power_supply": "yes",
            "sanitary_dump_station": "yes",
            "seamark:harbour:category": "marina",
            "seamark:name": "Marina Havelbaude",
            "seamark:type": "harbour",
            "shower": "yes",
            "toilets": "yes",
            "website": "https://www.marina-havelbaude.de/"
        },
        "name": null
    },
    {
        "tags": {
            "description": "Boots-Motoren-Kapahnke, Brunnert - Bootsattlerei am Werlsee",
            "draft": "1.5",
            "email": "info@fangschleuse.de",
            "leisure": "marina",
            "name": "Bootshaus am Werlsee",
            "phone": "+49 3362 6152",
            "seamark:harbour:category": "marina",
            "seamark:name": "Bootshaus am Werlsee",
            "seamark:type": "harbour",
            "website": "https://www.fangschleuse.de/"
        },
        "name": null
    },
    {
        "tags": {
            "email": "vorstand@vbs-1885.de",
            "ft_link": "www.freietonne.de?edit=3763",
            "leisure": "marina",
            "name": "Verein Berliner Segler e.V.",
            "phone": "+49 30 6758151",
            "seamark:harbour:category": "marina",
            "seamark:name": "Verein Berliner Segler",
            "seamark:type": "harbour",
            "website": "https://www.vbs-1885.de/"
        },
        "name": null
    },
    {
        "tags": {
            "description": "Gemeinnütziges Erholungswerk der IG Bau",
            "name": "Hotel Schildhorn",
            "seamark:harbour:category": "marina_no_facilities",
            "seamark:name": "Hotel Schildhorn",
            "seamark:type": "harbour",
            "waterway:sign": "parking"
        },
        "name": null
    },
    {
        "tags": {
            "leisure": "marina",
            "name": "Anleger Neustädter Havelbucht",
            "phone": "+49 331 91090",
            "seamark:harbour:category": "marina_no_facilities",
            "seamark:name": "Anleger Neustädter Havelbucht",
            "seamark:type": "harbour",
            "wheelchair": "no"
        },
        "name": null
    },
    {
        "tags": {
            "harbour": "yes",
            "maxdraft": "2",
            "name": "Borsighafen",
            "seamark:type": "harbour"
        },
        "name": null
    },
    {
        "tags": {
            "leisure": "marina",
            "name": "Wassersportclub Kladow",
            "phone": "+49 30 8216788",
            "seamark:harbour:category": "marina",
            "seamark:name": "Wassersportclub Kladow",
            "seamark:type": "harbour",
            "website": "https://wack-berlin.de/"
        },
        "name": null
    },
    {
        "tags": {
            "leisure": "marina",
            "name": "Segelclub der Schele-Schule",
            "seamark:harbour:category": "marina",
            "seamark:name": "Segelclub der Schele-Schule",
            "seamark:type": "harbour",
            "source": "local knowledge"
        },
        "name": null
    },
    {
        "tags": {
            "email": "bootshaus@zeh.tu-berlin.de",
            "leisure": "marina",
            "name": "TU-Bootshaus",
            "phone": "+49 30 3623106",
            "seamark:harbour:category": "marina",
            "seamark:name": "TU-Bootshaus",
            "seamark:type": "harbour",
            "source": "local knowledge"
        },
        "name": null
    },
    {
        "tags": {
            "ft_link": "www.freietonne.de?edit=25891",
            "leisure": "marina",
            "name": "Sportboothafen Gosen"
        },
        "name": null
    },
    {
        "tags": {
            "description": "Dauer- und Gastliegeplätze. Strom, Wasser, WC, Duschen, Entsorgungsmöglichkeit für Chemie WC. Slippbahn.",
            "email": "info@bootshaus-roll.de",
            "ft_link": "www.freietonne.de?edit=26926",
            "leisure": "marina",
            "name": "Bootshaus Roll",
            "phone": "+49 33762 92436",
            "seamark:harbour:category": "marina",
            "seamark:name": "Bootshaus Roll",
            "seamark:type": "harbour",
            "website": "https://www.bootshaus-roll.de/bootshaus.php?page=bootshaus"
        },
        "name": null
    },
    {
        "tags": {
            "ft_link": "www.freietonne.de?edit=26927",
            "leisure": "marina",
            "name": "Berliner Sportverein AdW e.V.",
            "note": "Die AdW wurde 1991 aufgelöst, heißt das tatsächlich noch so?",
            "old_name": "Hankels Ablage",
            "phone": "+49 33762 70375",
            "seamark:harbour:category": "marina",
            "seamark:name": "Berliner Sportverein AdW e.V.",
            "seamark:type": "harbour",
            "website": "https://www.adw-zeuthen.de/"
        },
        "name": null
    },
    {
        "tags": {
            "draft": "1.5",
            "drinking_water": "yes",
            "email": "mail@mc-stienitzsee.de",
            "ft_link": "www.freietonne.de?edit=27087",
            "leisure": "marina",
            "name": "MC Stienitzsee",
            "phone": "+49 33434 14695",
            "power_supply": "yes",
            "seamark:harbour:category": "marina",
            "seamark:name": "MC Stienitzsee",
            "seamark:type": "harbour",
            "website": "http://www.wodan-solutions.com/user/mcs/index.htm"
        },
        "name": null
    },
    {
        "tags": {
            "description": "Fahrgastschiffe kreuzen und stauen sich",
            "ft_link": "www.freietonne.de?edit=28731",
            "man_made": "pier",
            "mooring": "cruise",
            "note": "Anleger für Fahrgastschiff",
            "waterway:sign": "parking",
            "wheelchair": "no"
        },
        "name": null
    },
    {
        "tags": {
            "contact:email": "info@scoh.de",
            "contact:phone": "+49 30 3611390",
            "contact:website": "http://www.scoh.de/",
            "leisure": "marina",
            "name": "Segel-Club Oberhavel",
            "seamark:harbour:category": "marina",
            "seamark:name": "Segel-Club Oberhavel",
            "seamark:type": "harbour",
            "source": "local knowledge"
        },
        "name": null
    },
    {
        "tags": {
            "addr:city": "Berlin",
            "addr:country": "DE",
            "addr:housenumber": "376-378",
            "addr:postcode": "12557",
            "addr:street": "Wendenschloßstraße",
            "addr:suburb": "Köpenick",
            "email": "info@scf1891.de",
            "leisure": "marina",
            "name": "Segel-Club Fraternitas 1891 e.V.",
            "phone": "+49 30 6515858",
            "seamark:harbour:category": "marina",
            "seamark:name": "Segel-Club Fraternitas 1891 e.V.",
            "seamark:type": "harbour",
            "website": "https://www.scf1891.de/"
        },
        "name": null
    },
    {
        "tags": {
            "addr:city": "Berlin",
            "addr:country": "DE",
            "addr:housenumber": "15",
            "addr:postcode": "13599",
            "addr:street": "Im Saatwinkel",
            "addr:suburb": "Haselhorst",
            "leisure": "marina",
            "name": "Bootsstände Lahe",
            "seamark:harbour:category": "marina",
            "seamark:name": "Bootsstände Lahe",
            "seamark:type": "harbour"
        },
        "name": null
    },
    {
        "tags": {
            "addr:city": "Brieselang",
            "addr:country": "DE",
            "addr:housenumber": "2",
            "addr:postcode": "14656",
            "addr:street": "Am Alten Freibad",
            "capacity": "72",
            "description": "keine gelbe Welle",
            "email": "info@wasserfreunde-brieselang.de",
            "ft_link": "www.freietonne.de?edit=35811",
            "internet_access": "wlan",
            "leisure": "marina",
            "name": "Sportboothafen",
            "operator": "Sportgemeinschaft Wasserfreunde Brieselang e.V.",
            "phone": "+49 176 53828126",
            "power_supply": "yes",
            "seamark:harbour:category": "marina",
            "seamark:name": "Sportgemeinschaft Wasserfreunde Brieselang e.V.",
            "seamark:type": "harbour",
            "website": "http://www.wasserfreunde-brieselang.de",
            "wheelchair": "limited"
        },
        "name": null
    },
    {
        "tags": {
            "drinking_water": "yes",
            "email": "pier36eins@u-s-e.org",
            "leisure": "marina",
            "name": "pier36eins",
            "phone": "+49 30 677880104",
            "power_supply": "yes",
            "seamark:harbour:category": "marina",
            "seamark:name": "pier36eins",
            "seamark:type": "harbour",
            "shower": "yes",
            "toilets": "yes",
            "website": "https://www.pier36eins.de/"
        },
        "name": null
    },
    {
        "tags": {
            "description": "einige Gastliegeplätze an den Stegköpfen, WC, Dusche, Fäkalienabsauganlage, Hotel, Restaurant, Sauna/Fitness, Yachtservice und Händler für Yachtzubehör auf dem Gelände",
            "email": "info@wassersportzentrum.de",
            "leisure": "marina",
            "name": "Wassersportzentrum Berlin",
            "phone": "+49 30 641800",
            "seamark:harbour:category": "marina",
            "seamark:name": "Wassersportzentrum Berlin",
            "seamark:type": "harbour",
            "website": "https://wassersportzentrum.de/"
        },
        "name": null
    },
    {
        "tags": {
            "email": "info@vanloon.de",
            "leisure": "marina",
            "name": "Anleger am Schiffsrestaurant van Loon",
            "phone": "+49 30 6926293",
            "seamark:harbour:category": "marina_no_facilities",
            "seamark:name": "Anleger am Schiffsrestaurant van Loon",
            "seamark:type": "harbour",
            "website": "https://vanloon.de/",
            "wheelchair": "limited"
        },
        "name": null
    },
    {
        "tags": {
            "leisure": "marina",
            "name": "Tankschiffliegehafen",
            "seamark:harbour:category": "marina",
            "seamark:type": "harbour"
        },
        "name": null
    },
    {
        "tags": {
            "email": "info@marina-papenberge.de",
            "leisure": "marina",
            "name": "Marina Papenberge",
            "phone": "+49 3302 876103",
            "seamark:harbour:category": "marina",
            "seamark:name": "Marina Papenberge",
            "seamark:type": "harbour",
            "website": "https://www.marina-papenberge.de/"
        },
        "name": null
    },
    {
        "tags": {
            "man_made": "pier",
            "name": "Anlegestelle Haus der Kulturen der Welt",
            "wheelchair": "yes"
        },
        "name": null
    },
    {
        "tags": {
            "email": "sscbg@berlin.de",
            "leisure": "marina",
            "name": "Seesportclub Berlin-Grünau e.V.",
            "phone": "+49 30 6743458",
            "seamark:harbour:category": "marina",
            "seamark:name": "Seesportclub Berlin-Grünau e.V.",
            "seamark:type": "harbour",
            "website": "https://www.sscbg.de/"
        },
        "name": null
    },
    {
        "tags": {
            "addr:city": "Berlin",
            "addr:country": "DE",
            "addr:housenumber": "1 - 3",
            "addr:postcode": "14089",
            "addr:street": "Alt-Gatow",
            "addr:suburb": "Gatow",
            "description": "Kostenpflichtige GASTLIEGEPLÄTZE",
            "leisure": "marina",
            "name": "Motor-Yacht-Club-Preußen e.v. im ADAC",
            "phone": "+49 30 36 50 90 01",
            "seamark:harbour:category": "marina",
            "seamark:name": "Motor-Yacht-Club-Preußen e.v. im ADAC",
            "seamark:type": "harbour",
            "website": "http://www.myc-preussen.de/"
        },
        "name": null
    },
    {
        "tags": {
            "amenity": "ferry_terminal",
            "cargo": "passengers",
            "ferry": "yes",
            "name": "Hafen Treptow",
            "operator": "Stern und Kreisschiffahrt GmbH Berlin",
            "public_transport": "station",
            "seamark:harbour:category": "harbour",
            "seamark:name": "Hafen Treptow",
            "seamark:type": "harbour",
            "wheelchair": "yes",
            "wikidata": "Q71690552",
            "wikipedia": "de:Hafen Treptow"
        },
        "name": null
    },
    {
        "tags": {
            "email": "haus-dannenberg@web.de",
            "leisure": "marina",
            "name": "Hotel Dannenberg",
            "phone": "+49 30 4313091",
            "seamark:harbour:category": "marina",
            "seamark:name": "Hotel Dannenberg",
            "seamark:type": "harbour",
            "website": "https://www.haus-dannenberg.de"
        },
        "name": null
    },
    {
        "tags": {
            "email": "info@schiffskontor.de",
            "harbour": "yes",
            "leisure": "marina",
            "name": "Hafen Schiffskontor",
            "phone": "+49 30 246479960",
            "seamark:harbour:category": "harbour",
            "seamark:name": "Schiffskontor",
            "seamark:type": "harbour",
            "website": "https://www.schiffskontor.de/",
            "wheelchair": "no"
        },
        "name": null
    },
    {
        "tags": {
            "description": "Fäkalienanlage Automat 2x 1€, Frischwasser beim Hafenmeister bezahlen",
            "draft": "1.4",
            "leisure": "marina",
            "name": "PSB 24",
            "phone": "+49 30 82309844",
            "seamark:harbour:category": "marina",
            "seamark:name": "PSB 24",
            "seamark:type": "harbour",
            "website": "http://www.psb24-koepenick.de"
        },
        "name": null
    },
    {
        "tags": {
            "addr:city": "Berlin",
            "addr:country": "DE",
            "addr:housename": "SC Brise 1898",
            "addr:housenumber": "390",
            "addr:postcode": "12557",
            "addr:street": "Wendenschloßstraße",
            "addr:suburb": "Köpenick",
            "email": "segeln@sc-brise.de",
            "leisure": "marina",
            "name": "SC Brise 1898",
            "phone": "+49 30 65499136",
            "seamark:harbour:category": "marina",
            "seamark:name": "SC Brise 1898",
            "seamark:type": "harbour",
            "website": "https://www.sc-brise.de"
        },
        "name": null
    },
    {
        "tags": {
            "drinking_water": "yes",
            "email": "info@pier38berlin.de",
            "leisure": "marina",
            "name": "Pier 38",
            "phone": "+49 30 6758687",
            "power_supply": "yes",
            "sanitary_dump_station": "yes",
            "seamark:harbour:category": "marina",
            "seamark:name": "Pier 38",
            "seamark:type": "harbour",
            "shower": "yes",
            "website": "https://www.pier38berlin.de/"
        },
        "name": null
    },
    {
        "tags": {
            "email": "vorstand@wsvk.info",
            "image": "http://www.wsvk.info/Wassersportverein_Karolinenhof/Home_-_Herzlich_willkommen_beim_Wassersportverein_Karolinenhof_e.V._files/shapeimage_13.png",
            "leisure": "marina",
            "name": "WSV Karolinenhof e.V.",
            "phone": "+49 30 6759523",
            "seamark:harbour:category": "marina",
            "seamark:name": "WSV Karolinenhof e.V.",
            "seamark:type": "harbour",
            "website": "http://www.wsvk.info"
        },
        "name": null
    },
    {
        "tags": {
            "addr:city": "Berlin",
            "addr:country": "DE",
            "addr:housenumber": "5",
            "addr:postcode": "10317",
            "addr:street": "Zur Alten Flussbadeanstalt",
            "description": "Gastliegeplätze für Boote bis 15 Meter Länge, Hafenküche mit guter Küche, Bootsvermietung, Slipanlage, Abwasserentsorgung, Verkehrsanbindung über Tram ca. 500 m, Hafenmeister: 030/422199299",
            "draft": "1.5",
            "drinking_water": "yes",
            "email": "hafenmeister@hafenundhof.de",
            "internet_access": "wlan",
            "leisure": "marina",
            "name": "Citymarina Rummelsburg",
            "phone": "+49 30 422199299",
            "power_supply": "yes",
            "sanitary_dump_station": "yes",
            "seamark:harbour:category": "marina",
            "seamark:name": "Citymarina Rummelsburg",
            "seamark:type": "harbour",
            "shower": "yes",
            "toilets": "yes",
            "website": "https://citymarina-berlin.de/",
            "wheelchair": "yes"
        },
        "name": null
    },
    {
        "tags": {
            "contact:phone": "+49 30 3620090",
            "contact:website": "https://www.marina-lanke.de",
            "harbour": "yes",
            "leisure": "marina",
            "name": "Marina Lanke",
            "seamark:harbour:category": "marina",
            "seamark:name": "Marina Lanke",
            "seamark:type": "harbour"
        },
        "name": null
    },
    {
        "tags": {
            "man_made": "pier"
        },
        "name": null
    },
    {
        "tags": {
            "email": "bootshauseiswerd@aol.com",
            "leisure": "marina",
            "name": "Bootshaus Eiswerder",
            "phone": "+49 30 3362907",
            "seamark:harbour:category": "marina",
            "seamark:name": "Bootshaus Eiswerder",
            "seamark:type": "harbour",
            "website": "http://www.bootshaus-eiswerder.de/"
        },
        "name": null
    },
    {
        "tags": {
            "contact:email": "info@altstadthafen-spandau.de",
            "contact:phone": "+49 30 20144505",
            "contact:website": "http://www.altstadthafen-spandau.de",
            "leisure": "marina",
            "name": "Altstadthafen Berlin-Spandau",
            "sanitary_dump_station": "yes",
            "seamark:harbour:category": "marina",
            "seamark:name": "Altstadthafen Berlin-Spandau",
            "seamark:type": "harbour",
            "wheelchair": "no"
        },
        "name": null
    },
    {
        "tags": {
            "leisure": "marina",
            "seamark:harbour:category": "marina",
            "seamark:type": "harbour"
        },
        "name": null
    },
    {
        "tags": {
            "leisure": "marina",
            "seamark:harbour:category": "marina",
            "seamark:name": "Marina Wendenschloss",
            "seamark:type": "harbour"
        },
        "name": null
    },
    {
        "tags": {
            "contact:email": "info@bootshaus-hempler.de",
            "contact:phone": "+49 30 21 80 83 44",
            "contact:website": "http://www.bootshaus-hempler.de",
            "leisure": "marina",
            "name": "Bootshaus Hempler",
            "seamark:harbour:category": "marina",
            "seamark:name": "Bootshaus Hempler",
            "seamark:type": "harbour"
        },
        "name": null
    },
    {
        "tags": {
            "email": "zeeb@bootshaus-berlin.de",
            "leisure": "marina",
            "name": "Bootshaus Zeuthener See",
            "phone": "+49 30 67803927",
            "seamark:harbour:category": "marina",
            "seamark:name": "Bootshaus Zeuthener See",
            "seamark:type": "harbour",
            "website": "http://bootshaus-berlin.de"
        },
        "name": null
    },
    {
        "tags": {
            "leisure": "marina",
            "name": "Bootshaus Zacholowsky",
            "phone": "+49 30 3348919",
            "seamark:harbour:category": "marina",
            "seamark:name": "Bootshaus Zacholowsky",
            "seamark:type": "harbour"
        },
        "name": null
    },
    {
        "tags": {
            "contact:email": "office@bootsstaende-angermann.de",
            "contact:phone": "+49 30 3612084",
            "contact:website": "https://www.bootsstaende-angermann.de/",
            "leisure": "marina",
            "name": "Bootsstände Angermann",
            "seamark:harbour:category": "marina",
            "seamark:name": "Bootsstände Angermann",
            "seamark:type": "harbour"
        },
        "name": null
    },
    {
        "tags": {
            "addr:city": "Berlin",
            "addr:country": "DE",
            "addr:housenumber": "8M",
            "addr:postcode": "12555",
            "addr:street": "Friedrichshagener Straße",
            "addr:suburb": "Köpenick",
            "email": "mail@csvberlin.de",
            "leisure": "marina",
            "name": "Cöpenicker Segler-Verein",
            "phone": "+49 30 657 20 48",
            "seamark:harbour:category": "marina",
            "seamark:name": "Cöpenicker Segler-Verein",
            "seamark:type": "harbour",
            "website": "https://www.csvberlin.de"
        },
        "name": null
    },
    {
        "tags": {
            "email": "info@bootsverleih-spreepoint.de",
            "leisure": "marina",
            "name": "Bootsverleih SPREE POINT",
            "phone": "+49 171 7140816; +49 30 6411291",
            "seamark:harbour:category": "marina",
            "seamark:name": "Bootsverleih SPREE POINT",
            "seamark:type": "harbour",
            "shower": "yes",
            "toilets": "yes",
            "toilets:wheelchair": "yes",
            "website": "https://www.bootsverleih-spreepoint.de/boote/",
            "wheelchair": "yes"
        },
        "name": null
    },
    {
        "tags": {
            "email": "info@lindwerder.de",
            "leisure": "marina",
            "name": "Ideeninsel Lindwerder",
            "phone": "+49 30 8036584",
            "seamark:harbour:category": "marina",
            "seamark:name": "Ideeninsel Lindwerder",
            "seamark:type": "harbour",
            "website": "https://www.lindwerder.de/",
            "wheelchair": "no",
            "wheelchair:description": "Fähre nicht rollstuhlgerecht"
        },
        "name": null
    },
    {
        "tags": {
            "email": "post@mbc-berlin.de",
            "leisure": "marina",
            "name": "Motor-Boot-Club Berlin e. V.",
            "phone": "+49 30 8053084",
            "seamark:harbour:category": "marina",
            "seamark:name": "Motor-Boot-Club Berlin e. V.",
            "seamark:type": "harbour",
            "website": "https://www.mbc-berlin.de/"
        },
        "name": null
    },
    {
        "tags": {
            "email": "info@myc-tegel.de",
            "leisure": "marina",
            "name": "Motor-Yacht-Club Tegel e. V.",
            "phone": "+49 30 4329880",
            "seamark:harbour:category": "marina",
            "seamark:name": "Motor-Yacht-Club Tegel e. V.",
            "seamark:type": "harbour",
            "website": "https://www.myc-tegel.de/",
            "wheelchair": "no"
        },
        "name": null
    },
    {
        "tags": {
            "leisure": "marina",
            "name": "Bläske & Schülke",
            "phone": "+49 30 6596873",
            "seamark:harbour:category": "marina",
            "seamark:name": "Bläske & Schülke",
            "seamark:type": "harbour"
        },
        "name": null
    },
    {
        "tags": {
            "addr:city": "Berlin",
            "addr:country": "DE",
            "addr:housenumber": "18",
            "addr:postcode": "13587",
            "addr:street": "Elkartweg",
            "addr:suburb": "Spandau",
            "contact:email": "SCS.Segel-Club-Spandau@t-online.de",
            "contact:phone": "+49 30 3352570",
            "contact:website": "http://www.scspandau.de",
            "email": "SCS.Segel-Club-Spandau@t-online.de",
            "leisure": "marina",
            "name": "SC Spandau e.V.",
            "seamark:harbour:category": "marina",
            "seamark:name": "SC Spandau e.V.",
            "seamark:type": "harbour"
        },
        "name": null
    },
    {
        "tags": {
            "draft": "0.8",
            "email": "bootshaus-erkner@t-online.de",
            "leisure": "marina",
            "name": "Bootshaus Burchardt",
            "phone": "+49 3362 3002",
            "seamark:harbour:category": "marina",
            "seamark:name": "Bootshaus Burchardt",
            "seamark:type": "harbour",
            "website": "http://www.bootshaus-erkner.de"
        },
        "name": null
    },
    {
        "tags": {
            "description": "http://www.kellings-schifferstube.de/index.html Mit Restaurant \"Kellings Schifferstube\" 5 Gastliegeplätze 1, 50 € pro m 2, 00 € Strompauschale 1, 50 € Dusche pro Person",
            "email": "info@Kellings-Schifferstube.de",
            "leisure": "marina",
            "name": "Bootshaus Kelling",
            "phone": "+49 3362 4791",
            "seamark:harbour:category": "marina",
            "seamark:name": "Kellings Schifferstube",
            "seamark:type": "harbour",
            "website": "https://www.kellings-schifferstube.de/"
        },
        "name": null
    },
    {
        "tags": {
            "check_date": "2025-04-07",
            "email": "mail@sgam-friedrichshagen.de",
            "leisure": "marina",
            "name": "Seglergemeinschaft am Müggelsee",
            "phone": "+49 30 6440044",
            "seamark:harbour:category": "marina",
            "seamark:name": "Seglergemeinschaft am Müggelsee",
            "seamark:type": "harbour",
            "website": "https://www.sgam-friedrichshagen.de/"
        },
        "name": null
    },
    {
        "tags": {
            "leisure": "marina",
            "name": "MC Birkenwerder",
            "seamark:harbour:category": "marina",
            "seamark:name": "MC Birkenwerder",
            "seamark:type": "harbour",
            "website": "https://www.mc-birkenwerder.de/"
        },
        "name": null
    },
    {
        "tags": {
            "leisure": "marina",
            "name": "EWV Hennigsdorf",
            "phone": "+49 3302 225864",
            "seamark:harbour:category": "marina",
            "seamark:name": "EWV Hennigsdorf",
            "seamark:type": "harbour"
        },
        "name": null
    },
    {
        "tags": {
            "leisure": "marina",
            "name": "Stadthafen Hennigsdorf",
            "seamark:harbour:category": "marina",
            "seamark:name": "Stadthafen Hennigsdorf",
            "seamark:type": "harbour"
        },
        "name": null
    },
    {
        "tags": {
            "leisure": "marina",
            "name": "Yachtzentrum Nord-West",
            "phone": "+49 3302 876103",
            "seamark:harbour:category": "marina",
            "seamark:name": "Yachtzentrum Nord-West",
            "seamark:type": "harbour"
        },
        "name": null
    },
    {
        "tags": {
            "seamark:harbour:category": "marina",
            "seamark:name": "Sportboot Liegestelle 24h",
            "seamark:type": "harbour"
        },
        "name": null
    },
    {
        "tags": {
            "email": "Peter.Hallauer@bootsclub-oberelbe.de",
            "leisure": "marina",
            "name": "Nixe Yachthafen",
            "phone": "+49 30 8051083",
            "seamark:harbour:category": "marina",
            "seamark:name": "Nixe Yachthafen",
            "seamark:type": "harbour",
            "website": "http://www.nixe-yachthafen.de"
        },
        "name": null
    },
    {
        "tags": {
            "leisure": "marina",
            "seamark:harbour:category": "marina",
            "seamark:name": "Campingpark Sanssouci",
            "seamark:small_craft_facility:category": "gelbe_welle",
            "seamark:type": "harbour"
        },
        "name": null
    },
    {
        "tags": {
            "email": "info@wag-berlin.de",
            "leisure": "marina",
            "name": "Wassersportgemeinschaft am Großen Fenster",
            "phone": "+49 30 8037137",
            "seamark:harbour:category": "marina",
            "seamark:name": "Wassersportgemeinschaft am Großen Fenster",
            "seamark:type": "harbour",
            "website": "https://www.wag-berlin.de/"
        },
        "name": null
    },
    {
        "tags": {
            "draft": "1.70",
            "email": "kontakt@sc-flakensee.de",
            "leisure": "marina",
            "name": "Segel Club Flakensee",
            "phone": "+49 3362 5168",
            "seamark:harbour:category": "marina",
            "seamark:name": "Segel Club Flakensee",
            "seamark:type": "harbour",
            "website": "https://www.sc-flakensee.de/"
        },
        "name": null
    },
    {
        "tags": {
            "email": "info.koepenick@pentahotels.com",
            "leisure": "marina",
            "name": "Marina Schloss Köpenick",
            "phone": "+49 30 654790",
            "seamark:harbour:category": "marina",
            "seamark:name": "Marina Schloss Köpenick",
            "seamark:type": "harbour",
            "website": "https://www.pentahotels.com/hotels/koeph-berlin-koepenick/"
        },
        "name": null
    },
    {
        "tags": {
            "leisure": "marina",
            "name": "Segelclub Zeuthen e.V.",
            "seamark:harbour:category": "marina",
            "seamark:name": "Segelclub Zeuthen e.V.",
            "seamark:type": "harbour",
            "website": "https://www.segelclubzeuthen.de/",
            "wheelchair": "yes"
        },
        "name": null
    },
    {
        "tags": {
            "addr:housenumber": "12",
            "addr:street": "Niederlausitzstraße",
            "email": "verein@stahn-gmbh.de",
            "leisure": "marina",
            "name": "Zeuthener Yachtclub",
            "phone": "+49 33762 70977",
            "seamark:harbour:category": "marina",
            "seamark:name": "Zeuthener Yachtclub",
            "seamark:type": "harbour",
            "website": "http://www.zeutheneryachtclub.de"
        },
        "name": null
    },
    {
        "tags": {
            "leisure": "marina",
            "name": "Segelclub ARGO e.V.",
            "phone": "+49 30 6759246",
            "seamark:harbour:category": "marina",
            "seamark:name": "Segelclub ARGO e.V.",
            "seamark:type": "harbour",
            "website": "https://www.sc-argo.de/"
        },
        "name": null
    },
    {
        "tags": {
            "email": "info@marinaschulz.de",
            "leisure": "marina",
            "name": "Marina Schulz",
            "phone": "+49 30 3343255",
            "seamark:harbour:category": "marina",
            "seamark:name": "Marina Schulz",
            "seamark:type": "harbour",
            "website": "https://www.marinaschulz.de/"
        },
        "name": null
    },
    {
        "tags": {
            "email": "christa.franke@bootshaus-weller.de",
            "leisure": "marina",
            "name": "Bootshaus Weller",
            "phone": "+49 30 8051907",
            "seamark:harbour:category": "marina",
            "seamark:name": "Bootshaus Weller",
            "seamark:type": "harbour"
        },
        "name": null
    },
    {
        "tags": {
            "email": "info@wsfi.de",
            "leisure": "marina",
            "name": "Wassersportfreunde Imchen Berlin",
            "phone": "+49 30 3653063",
            "seamark:harbour:category": "marina",
            "seamark:name": "Wassersportfreunde Imchen Berlin",
            "seamark:type": "harbour",
            "website": "https://www.wsfi.de/"
        },
        "name": null
    },
    {
        "tags": {
            "contact:email": "bootshafenreiffer@t-online.de",
            "contact:phone": "+49 30 3612352",
            "leisure": "marina",
            "name": "Bootshafen Reiffer",
            "seamark:harbour:category": "marina",
            "seamark:name": "Bootshafen Reiffer",
            "seamark:type": "harbour"
        },
        "name": null
    },
    {
        "tags": {
            "contact:phone": "+49 30 3616379",
            "contact:website": "http://www.kanuklub-charlottenburg.de/",
            "leisure": "marina",
            "name": "Kanuklub Charlottenburg",
            "seamark:harbour:category": "marina",
            "seamark:name": "Kanuklub Charlottenburg",
            "seamark:type": "harbour"
        },
        "name": null
    },
    {
        "tags": {
            "contact:email": "vorstand@svhavel.de",
            "contact:phone": "+49 30 3612578",
            "contact:website": "https://svhavel.de",
            "leisure": "marina",
            "name": "Segelvereinigung Havel",
            "seamark:harbour:category": "marina",
            "seamark:name": "Segelvereinigung Havel",
            "seamark:type": "harbour"
        },
        "name": null
    },
    {
        "tags": {
            "contact:phone": "+49 30 3623003",
            "contact:website": "http://www.svsl.de",
            "leisure": "marina",
            "name": "Segler Verein Scharfe Lanke",
            "seamark:harbour:category": "marina",
            "seamark:name": "Segler Verein Scharfe Lanke",
            "seamark:type": "harbour"
        },
        "name": null
    },
    {
        "tags": {
            "contact:email": "office@scgothia.de",
            "contact:phone": "+49 30 3625022",
            "contact:website": "http://www.scgothia.de/",
            "leisure": "marina",
            "name": "Segler-Club Gothia",
            "seamark:harbour:category": "marina",
            "seamark:name": "Segler-Club Gothia",
            "seamark:type": "harbour",
            "wheelchair": "yes"
        },
        "name": null
    },
    {
        "tags": {
            "contact:email": "info@vwg-berlin.de",
            "contact:phone": "+49 30 30112717",
            "contact:website": "https://www.vwg-berlin.de/",
            "leisure": "marina",
            "name": "VWG Berlin",
            "seamark:harbour:category": "marina",
            "seamark:name": "VWG Berlin",
            "seamark:type": "harbour"
        },
        "name": null
    },
    {
        "tags": {
            "contact:email": "vorstand@spandauer-jollensegler.de",
            "contact:phone": "+49 30 3623321",
            "contact:website": "http://www.spandauer-jollensegler.de/",
            "leisure": "marina",
            "name": "Verein Spandauer Jollensegler",
            "seamark:harbour:category": "marina",
            "seamark:name": "Verein Spandauer Jollensegler",
            "seamark:type": "harbour",
            "wheelchair": "no"
        },
        "name": null
    },
    {
        "tags": {
            "contact:phone": "+49 30 301242923",
            "contact:website": "http://www.yachthafen-blau-rot.de/",
            "leisure": "marina",
            "name": "Yachthafen Blau-Rot",
            "seamark:harbour:category": "marina",
            "seamark:name": "Yachthafen Blau-Rot",
            "seamark:type": "harbour"
        },
        "name": null
    },
    {
        "tags": {
            "contact:email": "captainsinn@web.de",
            "contact:phone": "+49 30 3612929",
            "contact:website": "http://www.yachthafen-stoessensee.de/",
            "leisure": "marina",
            "name": "Yachthafen Captain's Inn",
            "seamark:harbour:category": "marina",
            "seamark:name": "Yachthafen Captain's Inn",
            "seamark:type": "harbour"
        },
        "name": null
    },
    {
        "tags": {
            "email": "vorstand@bsv1907.de",
            "leisure": "marina",
            "name": "Berliner Segler-Verein 1907",
            "phone": "+49 30 8053096",
            "seamark:harbour:category": "marina",
            "seamark:name": "Berliner Segler-Verein 1907",
            "seamark:type": "harbour",
            "website": "http://www.bsv1907.de/index2.php"
        },
        "name": null
    },
    {
        "tags": {
            "harbour:boat_hoist": "yes",
            "harbour:boatyard": "yes",
            "harbour:electricity": "yes",
            "harbour:showers": "yes",
            "harbour:slipway": "yes",
            "harbour:toilets": "yes",
            "harbour:water_tap": "yes",
            "leisure": "marina",
            "name": "Lachmann Werft GbR",
            "seamark:harbour:category": "marina",
            "seamark:type": "harbour",
            "waterway": "boatyard",
            "website": "https://www.lachmannwerft.de/"
        },
        "name": null
    },
    {
        "tags": {
            "email": "himmelreich@campingplatz-caputh.de",
            "leisure": "marina",
            "name": "Marina Himmelreich",
            "phone": "+49 33209 70475",
            "seamark:harbour:category": "marina",
            "seamark:name": "Marina Himmelreich",
            "seamark:type": "harbour",
            "website": "https://www.berlin-potsdam-camping.de/marina"
        },
        "name": null
    },
    {
        "tags": {
            "email": "info@prg1.de",
            "leisure": "marina",
            "name": "Potsdamer Ruder-Gesellschaft",
            "seamark:harbour:category": "marina",
            "seamark:name": "Potsdamer Ruder-Gesellschaft",
            "seamark:type": "harbour",
            "website": "https://www.prg1.de/"
        },
        "name": null
    },
    {
        "tags": {
            "email": "wassersportfreunde@pirschheide.de",
            "leisure": "marina",
            "name": "Wassersportfreunde Pirschheide Potsdam",
            "phone": "+49 331 974888",
            "seamark:harbour:category": "marina_no_facilities",
            "seamark:name": "Wassersportfreunde Pirschheide Potsdam",
            "seamark:type": "harbour",
            "website": "https://www.wassersportfreunde-pirschheide.de/",
            "wheelchair": "yes"
        },
        "name": null
    },
    {
        "tags": {
            "email": "mail@pscwiking.de",
            "leisure": "marina",
            "name": "Potsdamer Segler-Club Wiking",
            "phone": "+49 331 2803733",
            "seamark:harbour:category": "marina",
            "seamark:name": "Potsdamer Segler-Club Wiking",
            "seamark:type": "harbour",
            "website": "http://www.pscwiking.de/"
        },
        "name": null
    },
    {
        "tags": {
            "email": "info@boote-caputh.de",
            "leisure": "marina",
            "name": "Sportbootschule Caputh - Bothe Wassersport",
            "phone": "+49 33209 70517",
            "seamark:harbour:category": "marina",
            "seamark:name": "Sportbootschule Caputh - Bothe Wassersport",
            "seamark:small_craft_facility:category": "gelbe_welle",
            "seamark:type": "harbour",
            "website": "https://www.boote-caputh.de/"
        },
        "name": null
    },
    {
        "tags": {
            "draft": "1.3",
            "seamark:harbour:category": "marina_no_facilities",
            "seamark:information": "Liegestelle Sport 24h",
            "seamark:name": "Liegestelle Sport 24h",
            "seamark:type": "harbour"
        },
        "name": null
    }
]