[
    {
        "tags": {
            "name": "Berlin Ostgüterbahnhof (B7)",
            "official_name": "Berlin Warschauer Straße (F-Bahn) Bft",
            "operator": "DB Netz AG",
            "railway": "service_station",
            "railway:ref": "BOSGA",
            "railway:ref:parent": "BHF"
        },
        "name": null
    },
    {
        "tags": {
            "landuse": "commercial",
            "name": "ehemals Güterbahnhof Halensee"
        },
        "name": null
    },
    {
        "tags": {
            "landuse": "railway",
            "name": "Güterbahnhof Berlin-Spandau Johannesstift",
            "operator": "Havelländische Eisenbahn AG (HVLE)",
            "website": "https://www.hvle.de/",
            "wikipedia": "de:Havelländische Eisenbahn"
        },
        "name": null
    },
    {
        "tags": {
            "landuse": "brownfield",
            "name": "ehem. Containerbahnhof Frankfurter Allee"
        },
        "name": null
    },
    {
        "tags": {
            "landuse": "commercial",
            "name": "Güterbahnhof Tempelhof"
        },
        "name": null
    },
    {
        "tags": {
            "disused": "yes",
            "landuse": "brownfield",
            "name": "Ehemaliger Güterbahnhof Berlin-Köpenick"
        },
        "name": null
    },
    {
        "tags": {
            "landuse": "railway",
            "name": "Güterbahnhof Berlin-Treptow",
            "operator": "VEPAS Bahnservice"
        },
        "name": null
    },
    {
        "tags": {
            "description": "Bebauungsplan 03/19 Gemeinde Schönefeld",
            "landuse": "brownfield",
            "name": "Ehemaliger Güterbahnhof"
        },
        "name": null
    }
]