[
    {
        "tags": {
            "addr:city": "Berlin",
            "addr:housenumber": "100",
            "addr:street": "Am Borsigturm",
            "amenity": "post_depot",
            "brand": "Amazon",
            "brand:wikidata": "Q3884",
            "name": "Amazon Logistics BER6 in Berlin",
            "operator": "Amazon",
            "operator:type": "private",
            "operator:wikidata": "Q3884"
        },
        "name": null
    },
    {
        "tags": {
            "addr:city": "Brieselang",
            "addr:country": "DE",
            "addr:housenumber": "6",
            "addr:postcode": "14656",
            "addr:street": "Havellandstraße",
            "building": "warehouse",
            "operator": "Fiege Logistik Berlin GmbH & Co.KG"
        },
        "name": null
    },
    {
        "tags": {
            "industrial": "warehouse",
            "landuse": "industrial",
            "name": "Rhenus"
        },
        "name": null
    },
    {
        "tags": {
            "industrial": "warehouse",
            "landuse": "industrial",
            "name": "Zalando"
        },
        "name": null
    },
    {
        "tags": {
            "addr:city": "Velten",
            "addr:country": "DE",
            "addr:housenumber": "8",
            "addr:postcode": "16727",
            "addr:street": "Berliner Straße",
            "building": "commercial",
            "name": "Lagerleitstand Rhenus SE & Co KG"
        },
        "name": null
    },
    {
        "tags": {
            "addr:city": "Velten",
            "addr:country": "DE",
            "addr:housenumber": "8",
            "addr:postcode": "16727",
            "addr:street": "Berliner Straße",
            "building": "commercial",
            "name": "Verwaltungsgebäude Rhenus SE & Co KG",
            "website": "https://www.de.rhenus.com/"
        },
        "name": null
    },
    {
        "tags": {
            "addr:city": "Berlin",
            "addr:housenumber": "1",
            "addr:postcode": "10243",
            "addr:street": "Tamara-Danz-Straße",
            "building": "commercial",
            "building:levels": "7",
            "image": "https://photos.app.goo.gl/YN5aqtZGwMZ36vqJA",
            "name": "Zalando SE",
            "roof:shape": "flat",
            "website": "https://corporate.zalando.com"
        },
        "name": null
    },
    {
        "tags": {
            "addr:city": "Berlin",
            "addr:housenumber": "3",
            "addr:postcode": "10243",
            "addr:street": "Tamara-Danz-Straße",
            "building": "commercial",
            "building:levels": "7",
            "name": "Zalando SE",
            "roof:shape": "flat",
            "website": "https://corporate.zalando.com"
        },
        "name": null
    },
    {
        "tags": {
            "landuse": "commercial",
            "name": "Amazon logistics"
        },
        "name": null
    },
    {
        "tags": {
            "description": "Amazon Verteilzentrum",
            "landuse": "commercial",
            "name": "Amazon Flex",
            "operator": "Amazon Logistics",
            "wikidata": "Q67937344"
        },
        "name": null
    },
    {
        "tags": {
            "industrial": "warehouse",
            "landuse": "industrial",
            "name": "Fiege"
        },
        "name": null
    },
    {
        "tags": {
            "addr:city": "Oberkrämer",
            "addr:country": "DE",
            "addr:housenumber": "36",
            "addr:postcode": "16727",
            "addr:street": "Im Gewerbepark",
            "addr:suburb": "Vehlefanz",
            "building": "warehouse",
            "name": "Amazon",
            "start_date": "2022-12-05",
            "website": "https://www.rieck-logistik.de/"
        },
        "name": null
    },
    {
        "tags": {
            "addr:city": "Berlin",
            "addr:housenumber": "4",
            "addr:postcode": "10243",
            "addr:street": "Valeska-Gert-Straße",
            "building": "commercial",
            "building:levels": "7",
            "name": "Zalando SE",
            "type": "multipolygon",
            "website": "https://corporate.zalando.com"
        },
        "name": null
    }
]