[
    {
        "tags": {
            "addr:city": "Berlin",
            "addr:housenumber": "9-13",
            "addr:postcode": "14199",
            "addr:street": "Forckenbeckstraße",
            "addr:suburb": "Schmargendorf",
            "brand": "Fedex",
            "brand:wikidata": "Q459477",
            "name": "FedEx Station",
            "office": "logistics",
            "opening_hours": "Mo-Fr 10:00-18:30",
            "phone": "+4961076840660",
            "website": "https://local.fedex.com/de-de/berlin/bera"
        },
        "name": null
    },
    {
        "tags": {
            "addr:city": "Großbeeren",
            "addr:housenumber": "15",
            "addr:postcode": "14979",
            "addr:street": "Hauptstraße",
            "amenity": "post_depot",
            "brand": "FedEx",
            "brand:wikidata": "Q459477",
            "name": "FedEx Großbeeren",
            "operator": "FedEx",
            "operator:type": "private",
            "operator:wikidata": "Q459477"
        },
        "name": null
    },
    {
        "tags": {
            "amenity": "post_office",
            "brand": "FedEx",
            "brand:wikidata": "Q459477",
            "brand:wikipedia": "en:FedEx",
            "name": "FedEx Station"
        },
        "name": null
    },
    {
        "tags": {
            "addr:city": "Berlin",
            "addr:housenumber": "100",
            "addr:street": "Am Borsigturm",
            "amenity": "post_depot",
            "brand": "Amazon",
            "brand:wikidata": "Q3884",
            "name": "Amazon Logistics BER6 in Berlin",
            "operator": "Amazon",
            "operator:type": "private",
            "operator:wikidata": "Q3884"
        },
        "name": null
    },
    {
        "tags": {
            "addr:city": "Berlin",
            "addr:housenumber": "17-19",
            "addr:postcode": "13407",
            "addr:street": "Lengeder Straße",
            "addr:suburb": "Reinickendorf",
            "amenity": "post_depot",
            "brand": "UPS",
            "brand:wikidata": "Q155026",
            "building": "yes",
            "name": "UPS Berlin City Nord",
            "opening_hours": "Mo-Fr 08:00-20:00",
            "operator": "UPS",
            "operator:type": "private",
            "operator:wikidata": "Q155026"
        },
        "name": null
    },
    {
        "tags": {
            "addr:city": "Berlin",
            "addr:country": "DE",
            "addr:housenumber": "4-9",
            "addr:postcode": "12099",
            "addr:street": "Industriestraße",
            "amenity": "post_depot",
            "brand": "UPS",
            "brand:wikidata": "Q155026",
            "building": "industrial",
            "name": "UPS Kunden-Center Berlin-Süd",
            "opening_hours": "Mo-Fr 08:00-20:00",
            "operator": "UPS",
            "operator:type": "private",
            "operator:wikidata": "Q155026"
        },
        "name": null
    },
    {
        "tags": {
            "addr:city": "Hoppegarten",
            "addr:housenumber": "1",
            "addr:postcode": "15366",
            "addr:street": "Industriestraße",
            "addr:suburb": "Dahlwitz-Hoppegarten",
            "amenity": "post_depot",
            "barrier": "fence",
            "brand": "UPS",
            "brand:wikidata": "Q155026",
            "landuse": "commercial",
            "name": "UPS Depot Berlin Ost",
            "operator": "UPS",
            "operator:type": "private",
            "operator:wikidata": "Q155026"
        },
        "name": null
    }
]