[
    {
        "tags": {
            "addr:housenumber": "41",
            "addr:street": "Kurt-Schumacher-Damm",
            "landuse": "military",
            "military": "barracks",
            "military:name": "KdoTerrAufgBw",
            "name": "Julius-Leber-Kaserne",
            "old_name": "Quartier Napoléon",
            "wikidata": "Q1712438",
            "wikipedia": "de:Julius-Leber-Kaserne (Berlin)"
        },
        "name": null
    },
    {
        "tags": {
            "addr:city": "Berlin",
            "addr:country": "DE",
            "addr:housenumber": "182",
            "addr:postcode": "14089",
            "addr:street": "Kladower Damm",
            "landuse": "military",
            "military": "barracks",
            "name": "General-Steinhoff-Kaserne",
            "source:addr": "http://www.luftwaffe.de/portal/poc/luftwaffe?uri=ci:bw.lw.org.kdolw.kontakt"
        },
        "name": null
    },
    {
        "tags": {
            "building": "yes",
            "building:levels": "1",
            "landuse": "military",
            "military": "barracks",
            "roof:shape": "gabled",
            "source": "Geoportal Berlin / Hausumringe"
        },
        "name": null
    },
    {
        "tags": {
            "building": "yes",
            "building:levels": "2",
            "landuse": "military",
            "military": "barracks",
            "roof:shape": "hipped",
            "source": "Geoportal Berlin / Hausumringe"
        },
        "name": null
    },
    {
        "tags": {
            "building": "yes",
            "building:levels": "2",
            "landuse": "military",
            "military": "barracks",
            "roof:shape": "hipped",
            "source": "Geoportal Berlin / Hausumringe"
        },
        "name": null
    },
    {
        "tags": {
            "building": "yes",
            "building:levels": "2",
            "landuse": "military",
            "military": "barracks",
            "roof:shape": "hipped",
            "source": "Geoportal Berlin / Hausumringe"
        },
        "name": null
    },
    {
        "tags": {
            "barrier": "fence",
            "fence_type": "barbed_wire",
            "landuse": "military",
            "military": "range",
            "name": "Standorthallenschießanlage"
        },
        "name": null
    },
    {
        "tags": {
            "barrier": "fence",
            "landuse": "military",
            "military": "barracks",
            "name": "Blücher-Kaserne",
            "name:etymology:wikidata": "Q153522",
            "name:etymology:wikipedia": "de:Gebhard Leberecht von Blücher",
            "old_name:1935-1945": "Kaserne im Hottengrund",
            "old_name:1945-1993": "Montgomery Barracks",
            "wikidata": "Q43998952",
            "wikipedia": "de:Blücher-Kaserne (Berlin)"
        },
        "name": null
    },
    {
        "tags": {
            "landuse": "military"
        },
        "name": null
    },
    {
        "tags": {
            "building": "yes",
            "building:levels": "2",
            "landuse": "military",
            "military": "barracks",
            "roof:shape": "hipped",
            "source": "Geoportal Berlin / Hausumringe"
        },
        "name": null
    },
    {
        "tags": {
            "building": "yes",
            "building:levels": "2",
            "landuse": "military",
            "military": "barracks",
            "roof:shape": "hipped"
        },
        "name": null
    },
    {
        "tags": {
            "building": "yes",
            "building:levels": "2",
            "landuse": "military",
            "military": "barracks",
            "roof:shape": "hipped",
            "source": "Geoportal Berlin / Hausumringe"
        },
        "name": null
    },
    {
        "tags": {
            "building": "yes",
            "building:levels": "1",
            "landuse": "military",
            "military": "barracks",
            "source": "Geoportal Berlin / Hausumringe"
        },
        "name": null
    },
    {
        "tags": {
            "building": "yes",
            "building:levels": "2",
            "landuse": "military",
            "military": "barracks",
            "roof:shape": "hipped",
            "source": "Geoportal Berlin / Hausumringe"
        },
        "name": null
    },
    {
        "tags": {
            "building": "yes",
            "building:levels": "1",
            "landuse": "military",
            "military": "barracks",
            "source": "Geoportal Berlin / Hausumringe"
        },
        "name": null
    },
    {
        "tags": {
            "access": "no",
            "landuse": "military",
            "military": "training_area",
            "name": "Standortübungsplatz Berlin"
        },
        "name": null
    },
    {
        "tags": {
            "addr:city": "Berlin",
            "addr:country": "DE",
            "addr:housename": "11",
            "addr:housenumber": "60",
            "addr:postcode": "10315",
            "addr:street": "Alt-Friedrichsfelde",
            "military": "barracks"
        },
        "name": null
    },
    {
        "tags": {
            "landuse": "military"
        },
        "name": null
    },
    {
        "tags": {
            "barrier": "fence",
            "landuse": "military",
            "military": "barracks",
            "name": "Henning-von-Tresckow-Kaserne (Einsatzführungskommando der Bundeswehr)"
        },
        "name": null
    },
    {
        "tags": {
            "barrier": "fence",
            "landuse": "military",
            "military": "barracks"
        },
        "name": null
    },
    {
        "tags": {
            "landuse": "military",
            "name": "Barnim-Kaserne Strausberg",
            "wikidata": "Q808493",
            "wikipedia": "de:Barnim-Kaserne"
        },
        "name": null
    },
    {
        "tags": {
            "barrier": "fence",
            "landuse": "military",
            "military": "barracks",
            "name": "Dahme-Spree-Kaserne",
            "name:de": "Dahme-Spree-Kaserne",
            "name:en": "Dahme Spree Base",
            "operator": "Bundeswehr",
            "operator:wikidata": "Q56010",
            "operator:wikipedia": "de:Bundeswehr",
            "wikidata": "Q27478997",
            "wikipedia": "de:Dahme-Spree-Kaserne"
        },
        "name": null
    },
    {
        "tags": {
            "landuse": "military",
            "military": "barracks",
            "name": "Havelland-Kaserne",
            "old_name": "General-Wever-Kaserne",
            "wikidata": "Q109924610"
        },
        "name": null
    },
    {
        "tags": {
            "landuse": "military",
            "military": "barracks"
        },
        "name": null
    },
    {
        "tags": {
            "landuse": "military"
        },
        "name": null
    },
    {
        "tags": {
            "building": "yes",
            "building:levels": "1",
            "landuse": "military",
            "military": "barracks",
            "roof:shape": "gabled",
            "source": "Geoportal Berlin / Hausumringe"
        },
        "name": null
    },
    {
        "tags": {
            "building": "yes",
            "building:levels": "1",
            "landuse": "military",
            "military": "barracks",
            "roof:shape": "gabled",
            "source": "Geoportal Berlin / Hausumringe"
        },
        "name": null
    },
    {
        "tags": {
            "building": "yes",
            "building:levels": "1",
            "landuse": "military",
            "military": "barracks",
            "source": "Geoportal Berlin / Hausumringe"
        },
        "name": null
    },
    {
        "tags": {
            "landuse": "military"
        },
        "name": null
    },
    {
        "tags": {
            "landuse": "military"
        },
        "name": null
    },
    {
        "tags": {
            "building": "yes",
            "building:levels": "1",
            "landuse": "military",
            "military": "barracks",
            "roof:shape": "hipped",
            "source": "Geoportal Berlin / Hausumringe"
        },
        "name": null
    },
    {
        "tags": {
            "alt_name": "Regierungsflughafen",
            "description": "Flugbereitschaft des Bundesministeriums der Verteidigung, Standort am Flughafen Berlin-Brandenburg (Regierungsflughafen)",
            "ele": "47",
            "landuse": "military",
            "military": "airfield",
            "name": "Flughafen Berlin Brandenburg Militärischer Teil",
            "wikipedia": "de:Flughafen Berlin Brandenburg#Militärischer Teil"
        },
        "name": null
    },
    {
        "tags": {
            "landuse": "military"
        },
        "name": null
    },
    {
        "tags": {
            "landuse": "military"
        },
        "name": null
    }
]